{
"type": "FeatureCollection",
"name": "AquaticParkFtMason",
"crs": { "type": "name", "properties": { "name": "urn:ogc:def:crs:OGC:1.3:CRS84" } },
"features": [
{ "type": "Feature", "properties": { "Corridor": "Marina Blvd", "Limits": "Laguna St  -  Buchanan St", "StreetIdentifier": "Marina Blvd, between Laguna St  and  Buchanan St", "Sides": { "North": { "NextCleaning": "2026-09-02T08:00:00-07:00", "NextNextCleaning": "2026-09-16T08:00:00-07:00", "NextCleaningEnd": "2026-09-02T10:00:00-07:00", "NextNextCleaningEnd": "2026-09-16T10:00:00-07:00", "NextCleaningCalendarLink": "https://calendar.google.com/calendar/render?action=TEMPLATE&text=Street+Cleaning+Reminder&details=Car+parked+at+Marina+Blvd,+between+Laguna+St++and++Buchanan+St+on+the+North.+Cleaning+will+begin+Wednesday,+September+2nd+at+8:00+AM.&dates=20260902T080000/20260902T100000", "NextNextCleaningCalendarLink": "https://calendar.google.com/calendar/render?action=TEMPLATE&text=Street+Cleaning+Reminder&details=Car+parked+at+Marina+Blvd,+between+Laguna+St++and++Buchanan+St+on+the+North.+Cleaning+will+begin+Wednesday,+September+16th+at+8:00+AM.&dates=20260916T080000/20260916T100000" }, "South": { "NextCleaning": "2026-09-01T10:00:00-07:00", "NextNextCleaning": "2026-09-15T10:00:00-07:00", "NextCleaningEnd": "2026-09-01T12:00:00-07:00", "NextNextCleaningEnd": "2026-09-15T12:00:00-07:00", "NextCleaningCalendarLink": "https://calendar.google.com/calendar/render?action=TEMPLATE&text=Street+Cleaning+Reminder&details=Car+parked+at+Marina+Blvd,+between+Laguna+St++and++Buchanan+St+on+the+South.+Cleaning+will+begin+Tuesday,+September+1st+at+10:00+AM.&dates=20260901T100000/20260901T120000", "NextNextCleaningCalendarLink": "https://calendar.google.com/calendar/render?action=TEMPLATE&text=Street+Cleaning+Reminder&details=Car+parked+at+Marina+Blvd,+between+Laguna+St++and++Buchanan+St+on+the+South.+Cleaning+will+begin+Tuesday,+September+15th+at+10:00+AM.&dates=20260915T100000/20260915T120000" } } }, "geometry": { "type": "LineString", "coordinates": [ [ -122.432090716578003, 37.805199545360999 ], [ -122.432192937401993, 37.805205650603 ], [ -122.433667156495005, 37.805015254303001 ], [ -122.433797944676996, 37.805043287658002 ] ] } },
{ "type": "Feature", "properties": { "Corridor": "Bay St", "Limits": "Laguna St  -  Buchanan St", "StreetIdentifier": "Bay St, between Laguna St  and  Buchanan St", "Sides": { "North": { "NextCleaning": "2026-09-01T10:00:00-07:00", "NextNextCleaning": "2026-09-15T10:00:00-07:00", "NextCleaningEnd": "2026-09-01T12:00:00-07:00", "NextNextCleaningEnd": "2026-09-15T12:00:00-07:00", "NextCleaningCalendarLink": "https://calendar.google.com/calendar/render?action=TEMPLATE&text=Street+Cleaning+Reminder&details=Car+parked+at+Bay+St,+between+Laguna+St++and++Buchanan+St+on+the+North.+Cleaning+will+begin+Tuesday,+September+1st+at+10:00+AM.&dates=20260901T100000/20260901T120000", "NextNextCleaningCalendarLink": "https://calendar.google.com/calendar/render?action=TEMPLATE&text=Street+Cleaning+Reminder&details=Car+parked+at+Bay+St,+between+Laguna+St++and++Buchanan+St+on+the+North.+Cleaning+will+begin+Tuesday,+September+15th+at+10:00+AM.&dates=20260915T100000/20260915T120000" }, "South": { "NextCleaning": "2026-09-03T12:00:00-07:00", "NextNextCleaning": "2026-09-17T12:00:00-07:00", "NextCleaningEnd": "2026-09-03T14:00:00-07:00", "NextNextCleaningEnd": "2026-09-17T14:00:00-07:00", "NextCleaningCalendarLink": "https://calendar.google.com/calendar/render?action=TEMPLATE&text=Street+Cleaning+Reminder&details=Car+parked+at+Bay+St,+between+Laguna+St++and++Buchanan+St+on+the+South.+Cleaning+will+begin+Thursday,+September+3rd+at+12:00+PM.&dates=20260903T120000/20260903T140000", "NextNextCleaningCalendarLink": "https://calendar.google.com/calendar/render?action=TEMPLATE&text=Street+Cleaning+Reminder&details=Car+parked+at+Bay+St,+between+Laguna+St++and++Buchanan+St+on+the+South.+Cleaning+will+begin+Thursday,+September+17th+at+12:00+PM.&dates=20260917T120000/20260917T140000" } } }, "geometry": { "type": "LineString", "coordinates": [ [ -122.431679368855001, 37.803266736573001 ], [ -122.433327956320994, 37.803056885178002 ] ] } },
{ "type": "Feature", "properties": { "Corridor": "Hyde St", "Limits": "Beach St  -  Jefferson St", "StreetIdentifier": "Hyde St, between Beach St  and  Jefferson St", "Sides": { "East": { "NextCleaning": "2026-08-25T02:00:00-07:00", "NextNextCleaning": "2026-09-01T02:00:00-07:00", "NextCleaningEnd": "2026-08-25T06:00:00-07:00", "NextNextCleaningEnd": "2026-09-01T06:00:00-07:00", "NextCleaningCalendarLink": "https://calendar.google.com/calendar/render?action=TEMPLATE&text=Street+Cleaning+Reminder&details=Car+parked+at+Hyde+St,+between+Beach+St++and++Jefferson+St+on+the+East.+Cleaning+will+begin+Tuesday,+August+25th+at+2:00+AM.&dates=20260825T020000/20260825T060000", "NextNextCleaningCalendarLink": "https://calendar.google.com/calendar/render?action=TEMPLATE&text=Street+Cleaning+Reminder&details=Car+parked+at+Hyde+St,+between+Beach+St++and++Jefferson+St+on+the+East.+Cleaning+will+begin+Tuesday,+September+1st+at+2:00+AM.&dates=20260901T020000/20260901T060000" }, "West": { "NextCleaning": "2026-08-24T02:00:00-07:00", "NextNextCleaning": "2026-08-31T02:00:00-07:00", "NextCleaningEnd": "2026-08-24T06:00:00-07:00", "NextNextCleaningEnd": "2026-08-31T06:00:00-07:00", "NextCleaningCalendarLink": "https://calendar.google.com/calendar/render?action=TEMPLATE&text=Street+Cleaning+Reminder&details=Car+parked+at+Hyde+St,+between+Beach+St++and++Jefferson+St+on+the+West.+Cleaning+will+begin+Monday,+August+24th+at+2:00+AM.&dates=20260824T020000/20260824T060000", "NextNextCleaningCalendarLink": "https://calendar.google.com/calendar/render?action=TEMPLATE&text=Street+Cleaning+Reminder&details=Car+parked+at+Hyde+St,+between+Beach+St++and++Jefferson+St+on+the+West.+Cleaning+will+begin+Monday,+August+31st+at+2:00+AM.&dates=20260831T020000/20260831T060000" } } }, "geometry": { "type": "LineString", "coordinates": [ [ -122.420559965283999, 37.806657733070999 ], [ -122.420743267337002, 37.807590106843001 ] ] } },
{ "type": "Feature", "properties": { "Corridor": "Beach St", "Limits": "Columbus Ave  -  Hyde St", "StreetIdentifier": "Beach St, between Columbus Ave  and  Hyde St", "Sides": { "North": { "NextCleaning": "2026-08-24T02:00:00-07:00", "NextNextCleaning": "2026-08-31T02:00:00-07:00", "NextCleaningEnd": "2026-08-24T06:00:00-07:00", "NextNextCleaningEnd": "2026-08-31T06:00:00-07:00", "NextCleaningCalendarLink": "https://calendar.google.com/calendar/render?action=TEMPLATE&text=Street+Cleaning+Reminder&details=Car+parked+at+Beach+St,+between+Columbus+Ave++and++Hyde+St+on+the+North.+Cleaning+will+begin+Monday,+August+24th+at+2:00+AM.&dates=20260824T020000/20260824T060000", "NextNextCleaningCalendarLink": "https://calendar.google.com/calendar/render?action=TEMPLATE&text=Street+Cleaning+Reminder&details=Car+parked+at+Beach+St,+between+Columbus+Ave++and++Hyde+St+on+the+North.+Cleaning+will+begin+Monday,+August+31st+at+2:00+AM.&dates=20260831T020000/20260831T060000" }, "South": { "NextCleaning": "2026-08-25T02:00:00-07:00", "NextNextCleaning": "2026-09-01T02:00:00-07:00", "NextCleaningEnd": "2026-08-25T06:00:00-07:00", "NextNextCleaningEnd": "2026-09-01T06:00:00-07:00", "NextCleaningCalendarLink": "https://calendar.google.com/calendar/render?action=TEMPLATE&text=Street+Cleaning+Reminder&details=Car+parked+at+Beach+St,+between+Columbus+Ave++and++Hyde+St+on+the+South.+Cleaning+will+begin+Tuesday,+August+25th+at+2:00+AM.&dates=20260825T020000/20260825T060000", "NextNextCleaningCalendarLink": "https://calendar.google.com/calendar/render?action=TEMPLATE&text=Street+Cleaning+Reminder&details=Car+parked+at+Beach+St,+between+Columbus+Ave++and++Hyde+St+on+the+South.+Cleaning+will+begin+Tuesday,+September+1st+at+2:00+AM.&dates=20260901T020000/20260901T060000" } } }, "geometry": { "type": "LineString", "coordinates": [ [ -122.419577243405001, 37.806780112627003 ], [ -122.420559965283999, 37.806657733070999 ] ] } },
{ "type": "Feature", "properties": { "Corridor": "North Point St", "Limits": "Leavenworth St  -  Hyde St", "StreetIdentifier": "North Point St, between Leavenworth St  and  Hyde St", "Sides": { "North": { "NextCleaning": "2026-08-26T08:00:00-07:00", "NextNextCleaning": "2026-09-09T08:00:00-07:00", "NextCleaningEnd": "2026-08-26T10:00:00-07:00", "NextNextCleaningEnd": "2026-09-09T10:00:00-07:00", "NextCleaningCalendarLink": "https://calendar.google.com/calendar/render?action=TEMPLATE&text=Street+Cleaning+Reminder&details=Car+parked+at+North+Point+St,+between+Leavenworth+St++and++Hyde+St+on+the+North.+Cleaning+will+begin+Wednesday,+August+26th+at+8:00+AM.&dates=20260826T080000/20260826T100000", "NextNextCleaningCalendarLink": "https://calendar.google.com/calendar/render?action=TEMPLATE&text=Street+Cleaning+Reminder&details=Car+parked+at+North+Point+St,+between+Leavenworth+St++and++Hyde+St+on+the+North.+Cleaning+will+begin+Wednesday,+September+9th+at+8:00+AM.&dates=20260909T080000/20260909T100000" }, "South": { "NextCleaning": "2026-08-25T08:00:00-07:00", "NextNextCleaning": "2026-09-08T08:00:00-07:00", "NextCleaningEnd": "2026-08-25T10:00:00-07:00", "NextNextCleaningEnd": "2026-09-08T10:00:00-07:00", "NextCleaningCalendarLink": "https://calendar.google.com/calendar/render?action=TEMPLATE&text=Street+Cleaning+Reminder&details=Car+parked+at+North+Point+St,+between+Leavenworth+St++and++Hyde+St+on+the+South.+Cleaning+will+begin+Tuesday,+August+25th+at+8:00+AM.&dates=20260825T080000/20260825T100000", "NextNextCleaningCalendarLink": "https://calendar.google.com/calendar/render?action=TEMPLATE&text=Street+Cleaning+Reminder&details=Car+parked+at+North+Point+St,+between+Leavenworth+St++and++Hyde+St+on+the+South.+Cleaning+will+begin+Tuesday,+September+8th+at+8:00+AM.&dates=20260908T080000/20260908T100000" } } }, "geometry": { "type": "LineString", "coordinates": [ [ -122.418718265937997, 37.805931520008002 ], [ -122.420369046611, 37.805720256366001 ] ] } },
{ "type": "Feature", "properties": { "Corridor": "Hyde St", "Limits": "Bergen Pl  -  North Point St", "StreetIdentifier": "Hyde St, between Bergen Pl  and  North Point St", "Sides": { "East": { "NextCleaning": "2026-09-07T08:00:00-07:00", "NextNextCleaning": "2026-09-21T08:00:00-07:00", "NextCleaningEnd": "2026-09-07T10:00:00-07:00", "NextNextCleaningEnd": "2026-09-21T10:00:00-07:00", "NextCleaningCalendarLink": "https://calendar.google.com/calendar/render?action=TEMPLATE&text=Street+Cleaning+Reminder&details=Car+parked+at+Hyde+St,+between+Bergen+Pl++and++North+Point+St+on+the+East.+Cleaning+will+begin+Monday,+September+7th+at+8:00+AM.&dates=20260907T080000/20260907T100000", "NextNextCleaningCalendarLink": "https://calendar.google.com/calendar/render?action=TEMPLATE&text=Street+Cleaning+Reminder&details=Car+parked+at+Hyde+St,+between+Bergen+Pl++and++North+Point+St+on+the+East.+Cleaning+will+begin+Monday,+September+21st+at+8:00+AM.&dates=20260921T080000/20260921T100000" }, "West": { "NextCleaning": "2026-09-03T08:00:00-07:00", "NextNextCleaning": "2026-09-17T08:00:00-07:00", "NextCleaningEnd": "2026-09-03T10:00:00-07:00", "NextNextCleaningEnd": "2026-09-17T10:00:00-07:00", "NextCleaningCalendarLink": "https://calendar.google.com/calendar/render?action=TEMPLATE&text=Street+Cleaning+Reminder&details=Car+parked+at+Hyde+St,+between+Bergen+Pl++and++North+Point+St+on+the+West.+Cleaning+will+begin+Thursday,+September+3rd+at+8:00+AM.&dates=20260903T080000/20260903T100000", "NextNextCleaningCalendarLink": "https://calendar.google.com/calendar/render?action=TEMPLATE&text=Street+Cleaning+Reminder&details=Car+parked+at+Hyde+St,+between+Bergen+Pl++and++North+Point+St+on+the+West.+Cleaning+will+begin+Thursday,+September+17th+at+8:00+AM.&dates=20260917T080000/20260917T100000" } } }, "geometry": { "type": "LineString", "coordinates": [ [ -122.420269783720002, 37.805236764111001 ], [ -122.420369046611, 37.805720256366001 ] ] } },
{ "type": "Feature", "properties": { "Corridor": "North Point St", "Limits": "Hyde St  -  Larkin St", "StreetIdentifier": "North Point St, between Hyde St  and  Larkin St", "Sides": { "North": { "NextCleaning": "2026-08-26T08:00:00-07:00", "NextNextCleaning": "2026-09-09T08:00:00-07:00", "NextCleaningEnd": "2026-08-26T10:00:00-07:00", "NextNextCleaningEnd": "2026-09-09T10:00:00-07:00", "NextCleaningCalendarLink": "https://calendar.google.com/calendar/render?action=TEMPLATE&text=Street+Cleaning+Reminder&details=Car+parked+at+North+Point+St,+between+Hyde+St++and++Larkin+St+on+the+North.+Cleaning+will+begin+Wednesday,+August+26th+at+8:00+AM.&dates=20260826T080000/20260826T100000", "NextNextCleaningCalendarLink": "https://calendar.google.com/calendar/render?action=TEMPLATE&text=Street+Cleaning+Reminder&details=Car+parked+at+North+Point+St,+between+Hyde+St++and++Larkin+St+on+the+North.+Cleaning+will+begin+Wednesday,+September+9th+at+8:00+AM.&dates=20260909T080000/20260909T100000" }, "South": { "NextCleaning": "2026-08-25T08:00:00-07:00", "NextNextCleaning": "2026-09-08T08:00:00-07:00", "NextCleaningEnd": "2026-08-25T10:00:00-07:00", "NextNextCleaningEnd": "2026-09-08T10:00:00-07:00", "NextCleaningCalendarLink": "https://calendar.google.com/calendar/render?action=TEMPLATE&text=Street+Cleaning+Reminder&details=Car+parked+at+North+Point+St,+between+Hyde+St++and++Larkin+St+on+the+South.+Cleaning+will+begin+Tuesday,+August+25th+at+8:00+AM.&dates=20260825T080000/20260825T100000", "NextNextCleaningCalendarLink": "https://calendar.google.com/calendar/render?action=TEMPLATE&text=Street+Cleaning+Reminder&details=Car+parked+at+North+Point+St,+between+Hyde+St++and++Larkin+St+on+the+South.+Cleaning+will+begin+Tuesday,+September+8th+at+8:00+AM.&dates=20260908T080000/20260908T100000" } } }, "geometry": { "type": "LineString", "coordinates": [ [ -122.420369046611, 37.805720256366001 ], [ -122.422006821294005, 37.805496648164002 ] ] } },
{ "type": "Feature", "properties": { "Corridor": "Van Ness Ave", "Limits": "Start: 3301-3398 Block  -  End: 3301-3398 Block", "StreetIdentifier": "Van Ness Ave, between Start: 3301and3398 Block  and  End: 3301and3398 Block", "Sides": { "L": { "NextCleaning": "2026-08-28T06:00:00-07:00", "NextNextCleaning": "2026-09-11T06:00:00-07:00", "NextCleaningEnd": "2026-08-28T08:00:00-07:00", "NextNextCleaningEnd": "2026-09-11T08:00:00-07:00", "NextCleaningCalendarLink": "https://calendar.google.com/calendar/render?action=TEMPLATE&text=Street+Cleaning+Reminder&details=Car+parked+at+Van+Ness+Ave,+between+Start:+3301and3398+Block++and++End:+3301and3398+Block+on+the+L.+Cleaning+will+begin+Friday,+August+28th+at+6:00+AM.&dates=20260828T060000/20260828T080000", "NextNextCleaningCalendarLink": "https://calendar.google.com/calendar/render?action=TEMPLATE&text=Street+Cleaning+Reminder&details=Car+parked+at+Van+Ness+Ave,+between+Start:+3301and3398+Block++and++End:+3301and3398+Block+on+the+L.+Cleaning+will+begin+Friday,+September+11th+at+6:00+AM.&dates=20260911T060000/20260911T080000" }, "R": { "NextCleaning": "2026-08-25T06:00:00-07:00", "NextNextCleaning": "2026-09-08T06:00:00-07:00", "NextCleaningEnd": "2026-08-25T08:00:00-07:00", "NextNextCleaningEnd": "2026-09-08T08:00:00-07:00", "NextCleaningCalendarLink": "https://calendar.google.com/calendar/render?action=TEMPLATE&text=Street+Cleaning+Reminder&details=Car+parked+at+Van+Ness+Ave,+between+Start:+3301and3398+Block++and++End:+3301and3398+Block+on+the+R.+Cleaning+will+begin+Tuesday,+August+25th+at+6:00+AM.&dates=20260825T060000/20260825T080000", "NextNextCleaningCalendarLink": "https://calendar.google.com/calendar/render?action=TEMPLATE&text=Street+Cleaning+Reminder&details=Car+parked+at+Van+Ness+Ave,+between+Start:+3301and3398+Block++and++End:+3301and3398+Block+on+the+R.+Cleaning+will+begin+Tuesday,+September+8th+at+6:00+AM.&dates=20260908T060000/20260908T080000" } } }, "geometry": { "type": "LineString", "coordinates": [ [ -122.425477270217996, 37.805958977479001 ], [ -122.425487611055999, 37.806009959603998 ], [ -122.425627948086998, 37.806456468272998 ], [ -122.425780196790001, 37.806714936589998 ], [ -122.426256728324006, 37.80718522115 ], [ -122.426488520004995, 37.807651861154 ], [ -122.426612572267999, 37.808151765848002 ] ] } },
{ "type": "Feature", "properties": { "Corridor": "Hyde St", "Limits": "North Point St  -  Beach St", "StreetIdentifier": "Hyde St, between North Point St  and  Beach St", "Sides": { "East": { "NextCleaning": "2026-08-25T02:00:00-07:00", "NextNextCleaning": "2026-09-01T02:00:00-07:00", "NextCleaningEnd": "2026-08-25T06:00:00-07:00", "NextNextCleaningEnd": "2026-09-01T06:00:00-07:00", "NextCleaningCalendarLink": "https://calendar.google.com/calendar/render?action=TEMPLATE&text=Street+Cleaning+Reminder&details=Car+parked+at+Hyde+St,+between+North+Point+St++and++Beach+St+on+the+East.+Cleaning+will+begin+Tuesday,+August+25th+at+2:00+AM.&dates=20260825T020000/20260825T060000", "NextNextCleaningCalendarLink": "https://calendar.google.com/calendar/render?action=TEMPLATE&text=Street+Cleaning+Reminder&details=Car+parked+at+Hyde+St,+between+North+Point+St++and++Beach+St+on+the+East.+Cleaning+will+begin+Tuesday,+September+1st+at+2:00+AM.&dates=20260901T020000/20260901T060000" }, "West": { "NextCleaning": "2026-08-24T02:00:00-07:00", "NextNextCleaning": "2026-08-31T02:00:00-07:00", "NextCleaningEnd": "2026-08-24T06:00:00-07:00", "NextNextCleaningEnd": "2026-08-31T06:00:00-07:00", "NextCleaningCalendarLink": "https://calendar.google.com/calendar/render?action=TEMPLATE&text=Street+Cleaning+Reminder&details=Car+parked+at+Hyde+St,+between+North+Point+St++and++Beach+St+on+the+West.+Cleaning+will+begin+Monday,+August+24th+at+2:00+AM.&dates=20260824T020000/20260824T060000", "NextNextCleaningCalendarLink": "https://calendar.google.com/calendar/render?action=TEMPLATE&text=Street+Cleaning+Reminder&details=Car+parked+at+Hyde+St,+between+North+Point+St++and++Beach+St+on+the+West.+Cleaning+will+begin+Monday,+August+31st+at+2:00+AM.&dates=20260831T020000/20260831T060000" } } }, "geometry": { "type": "LineString", "coordinates": [ [ -122.420369046611, 37.805720256366001 ], [ -122.420559965283999, 37.806657733070999 ] ] } },
{ "type": "Feature", "properties": { "Corridor": "Larkin St", "Limits": "North Point St  -  Beach St", "StreetIdentifier": "Larkin St, between North Point St  and  Beach St", "Sides": { "East": { "NextCleaning": "2026-08-25T02:00:00-07:00", "NextNextCleaning": "2026-09-01T02:00:00-07:00", "NextCleaningEnd": "2026-08-25T06:00:00-07:00", "NextNextCleaningEnd": "2026-09-01T06:00:00-07:00", "NextCleaningCalendarLink": "https://calendar.google.com/calendar/render?action=TEMPLATE&text=Street+Cleaning+Reminder&details=Car+parked+at+Larkin+St,+between+North+Point+St++and++Beach+St+on+the+East.+Cleaning+will+begin+Tuesday,+August+25th+at+2:00+AM.&dates=20260825T020000/20260825T060000", "NextNextCleaningCalendarLink": "https://calendar.google.com/calendar/render?action=TEMPLATE&text=Street+Cleaning+Reminder&details=Car+parked+at+Larkin+St,+between+North+Point+St++and++Beach+St+on+the+East.+Cleaning+will+begin+Tuesday,+September+1st+at+2:00+AM.&dates=20260901T020000/20260901T060000" }, "West": { "NextCleaning": "2026-08-24T02:00:00-07:00", "NextNextCleaning": "2026-08-31T02:00:00-07:00", "NextCleaningEnd": "2026-08-24T06:00:00-07:00", "NextNextCleaningEnd": "2026-08-31T06:00:00-07:00", "NextCleaningCalendarLink": "https://calendar.google.com/calendar/render?action=TEMPLATE&text=Street+Cleaning+Reminder&details=Car+parked+at+Larkin+St,+between+North+Point+St++and++Beach+St+on+the+West.+Cleaning+will+begin+Monday,+August+24th+at+2:00+AM.&dates=20260824T020000/20260824T060000", "NextNextCleaningCalendarLink": "https://calendar.google.com/calendar/render?action=TEMPLATE&text=Street+Cleaning+Reminder&details=Car+parked+at+Larkin+St,+between+North+Point+St++and++Beach+St+on+the+West.+Cleaning+will+begin+Monday,+August+31st+at+2:00+AM.&dates=20260831T020000/20260831T060000" } } }, "geometry": { "type": "LineString", "coordinates": [ [ -122.422006821294005, 37.805496648164002 ], [ -122.422196207697993, 37.806436364417003 ] ] } },
{ "type": "Feature", "properties": { "Corridor": "Beach St", "Limits": "Larkin St  -  Polk St", "StreetIdentifier": "Beach St, between Larkin St  and  Polk St", "Sides": { "North": { "NextCleaning": "2026-08-24T02:00:00-07:00", "NextNextCleaning": "2026-08-31T02:00:00-07:00", "NextCleaningEnd": "2026-08-24T06:00:00-07:00", "NextNextCleaningEnd": "2026-08-31T06:00:00-07:00", "NextCleaningCalendarLink": "https://calendar.google.com/calendar/render?action=TEMPLATE&text=Street+Cleaning+Reminder&details=Car+parked+at+Beach+St,+between+Larkin+St++and++Polk+St+on+the+North.+Cleaning+will+begin+Monday,+August+24th+at+2:00+AM.&dates=20260824T020000/20260824T060000", "NextNextCleaningCalendarLink": "https://calendar.google.com/calendar/render?action=TEMPLATE&text=Street+Cleaning+Reminder&details=Car+parked+at+Beach+St,+between+Larkin+St++and++Polk+St+on+the+North.+Cleaning+will+begin+Monday,+August+31st+at+2:00+AM.&dates=20260831T020000/20260831T060000" }, "South": { "NextCleaning": "2026-08-25T02:00:00-07:00", "NextNextCleaning": "2026-09-01T02:00:00-07:00", "NextCleaningEnd": "2026-08-25T06:00:00-07:00", "NextNextCleaningEnd": "2026-09-01T06:00:00-07:00", "NextCleaningCalendarLink": "https://calendar.google.com/calendar/render?action=TEMPLATE&text=Street+Cleaning+Reminder&details=Car+parked+at+Beach+St,+between+Larkin+St++and++Polk+St+on+the+South.+Cleaning+will+begin+Tuesday,+August+25th+at+2:00+AM.&dates=20260825T020000/20260825T060000", "NextNextCleaningCalendarLink": "https://calendar.google.com/calendar/render?action=TEMPLATE&text=Street+Cleaning+Reminder&details=Car+parked+at+Beach+St,+between+Larkin+St++and++Polk+St+on+the+South.+Cleaning+will+begin+Tuesday,+September+1st+at+2:00+AM.&dates=20260901T020000/20260901T060000" } } }, "geometry": { "type": "LineString", "coordinates": [ [ -122.422196207697993, 37.806436364417003 ], [ -122.423844681031994, 37.806221894758998 ] ] } },
{ "type": "Feature", "properties": { "Corridor": "North Point St", "Limits": "Larkin St  -  Polk St", "StreetIdentifier": "North Point St, between Larkin St  and  Polk St", "Sides": { "North": { "NextCleaning": "2026-08-26T06:00:00-07:00", "NextNextCleaning": "2026-09-02T06:00:00-07:00", "NextCleaningEnd": "2026-08-26T08:00:00-07:00", "NextNextCleaningEnd": "2026-09-02T08:00:00-07:00", "NextCleaningCalendarLink": "https://calendar.google.com/calendar/render?action=TEMPLATE&text=Street+Cleaning+Reminder&details=Car+parked+at+North+Point+St,+between+Larkin+St++and++Polk+St+on+the+North.+Cleaning+will+begin+Wednesday,+August+26th+at+6:00+AM.&dates=20260826T060000/20260826T080000", "NextNextCleaningCalendarLink": "https://calendar.google.com/calendar/render?action=TEMPLATE&text=Street+Cleaning+Reminder&details=Car+parked+at+North+Point+St,+between+Larkin+St++and++Polk+St+on+the+North.+Cleaning+will+begin+Wednesday,+September+2nd+at+6:00+AM.&dates=20260902T060000/20260902T080000" }, "South": { "NextCleaning": "2026-08-25T08:00:00-07:00", "NextNextCleaning": "2026-09-08T08:00:00-07:00", "NextCleaningEnd": "2026-08-25T10:00:00-07:00", "NextNextCleaningEnd": "2026-09-08T10:00:00-07:00", "NextCleaningCalendarLink": "https://calendar.google.com/calendar/render?action=TEMPLATE&text=Street+Cleaning+Reminder&details=Car+parked+at+North+Point+St,+between+Larkin+St++and++Polk+St+on+the+South.+Cleaning+will+begin+Tuesday,+August+25th+at+8:00+AM.&dates=20260825T080000/20260825T100000", "NextNextCleaningCalendarLink": "https://calendar.google.com/calendar/render?action=TEMPLATE&text=Street+Cleaning+Reminder&details=Car+parked+at+North+Point+St,+between+Larkin+St++and++Polk+St+on+the+South.+Cleaning+will+begin+Tuesday,+September+8th+at+8:00+AM.&dates=20260908T080000/20260908T100000" } } }, "geometry": { "type": "LineString", "coordinates": [ [ -122.422006821294005, 37.805496648164002 ], [ -122.423655075271, 37.805286984452998 ] ] } },
{ "type": "Feature", "properties": { "Corridor": "Larkin St", "Limits": "Bay St  -  North Point St", "StreetIdentifier": "Larkin St, between Bay St  and  North Point St", "Sides": { "East": { "NextCleaning": "2026-09-03T08:00:00-07:00", "NextNextCleaning": "2026-09-17T08:00:00-07:00", "NextCleaningEnd": "2026-09-03T10:00:00-07:00", "NextNextCleaningEnd": "2026-09-17T10:00:00-07:00", "NextCleaningCalendarLink": "https://calendar.google.com/calendar/render?action=TEMPLATE&text=Street+Cleaning+Reminder&details=Car+parked+at+Larkin+St,+between+Bay+St++and++North+Point+St+on+the+East.+Cleaning+will+begin+Thursday,+September+3rd+at+8:00+AM.&dates=20260903T080000/20260903T100000", "NextNextCleaningCalendarLink": "https://calendar.google.com/calendar/render?action=TEMPLATE&text=Street+Cleaning+Reminder&details=Car+parked+at+Larkin+St,+between+Bay+St++and++North+Point+St+on+the+East.+Cleaning+will+begin+Thursday,+September+17th+at+8:00+AM.&dates=20260917T080000/20260917T100000" }, "West": { "NextCleaning": "2026-09-07T08:00:00-07:00", "NextNextCleaning": "2026-09-21T08:00:00-07:00", "NextCleaningEnd": "2026-09-07T10:00:00-07:00", "NextNextCleaningEnd": "2026-09-21T10:00:00-07:00", "NextCleaningCalendarLink": "https://calendar.google.com/calendar/render?action=TEMPLATE&text=Street+Cleaning+Reminder&details=Car+parked+at+Larkin+St,+between+Bay+St++and++North+Point+St+on+the+West.+Cleaning+will+begin+Monday,+September+7th+at+8:00+AM.&dates=20260907T080000/20260907T100000", "NextNextCleaningCalendarLink": "https://calendar.google.com/calendar/render?action=TEMPLATE&text=Street+Cleaning+Reminder&details=Car+parked+at+Larkin+St,+between+Bay+St++and++North+Point+St+on+the+West.+Cleaning+will+begin+Monday,+September+21st+at+8:00+AM.&dates=20260921T080000/20260921T100000" } } }, "geometry": { "type": "LineString", "coordinates": [ [ -122.421815316014005, 37.804564904199999 ], [ -122.422006821294005, 37.805496648164002 ] ] } },
{ "type": "Feature", "properties": { "Corridor": "Bay St", "Limits": "Larkin St  -  North View Ct", "StreetIdentifier": "Bay St, between Larkin St  and  North View Ct", "Sides": { "North": { "NextCleaning": "2026-08-25T08:00:00-07:00", "NextNextCleaning": "2026-09-08T08:00:00-07:00", "NextCleaningEnd": "2026-08-25T10:00:00-07:00", "NextNextCleaningEnd": "2026-09-08T10:00:00-07:00", "NextCleaningCalendarLink": "https://calendar.google.com/calendar/render?action=TEMPLATE&text=Street+Cleaning+Reminder&details=Car+parked+at+Bay+St,+between+Larkin+St++and++North+View+Ct+on+the+North.+Cleaning+will+begin+Tuesday,+August+25th+at+8:00+AM.&dates=20260825T080000/20260825T100000", "NextNextCleaningCalendarLink": "https://calendar.google.com/calendar/render?action=TEMPLATE&text=Street+Cleaning+Reminder&details=Car+parked+at+Bay+St,+between+Larkin+St++and++North+View+Ct+on+the+North.+Cleaning+will+begin+Tuesday,+September+8th+at+8:00+AM.&dates=20260908T080000/20260908T100000" }, "South": { "NextCleaning": "2026-08-26T08:00:00-07:00", "NextNextCleaning": "2026-09-09T08:00:00-07:00", "NextCleaningEnd": "2026-08-26T10:00:00-07:00", "NextNextCleaningEnd": "2026-09-09T10:00:00-07:00", "NextCleaningCalendarLink": "https://calendar.google.com/calendar/render?action=TEMPLATE&text=Street+Cleaning+Reminder&details=Car+parked+at+Bay+St,+between+Larkin+St++and++North+View+Ct+on+the+South.+Cleaning+will+begin+Wednesday,+August+26th+at+8:00+AM.&dates=20260826T080000/20260826T100000", "NextNextCleaningCalendarLink": "https://calendar.google.com/calendar/render?action=TEMPLATE&text=Street+Cleaning+Reminder&details=Car+parked+at+Bay+St,+between+Larkin+St++and++North+View+Ct+on+the+South.+Cleaning+will+begin+Wednesday,+September+9th+at+8:00+AM.&dates=20260909T080000/20260909T100000" } } }, "geometry": { "type": "LineString", "coordinates": [ [ -122.421815316014005, 37.804564904199999 ], [ -122.422536330846995, 37.804473191519001 ] ] } },
{ "type": "Feature", "properties": { "Corridor": "Bay St", "Limits": "North View Ct  -  Polk St", "StreetIdentifier": "Bay St, between North View Ct  and  Polk St", "Sides": { "North": { "NextCleaning": "2026-08-25T08:00:00-07:00", "NextNextCleaning": "2026-09-08T08:00:00-07:00", "NextCleaningEnd": "2026-08-25T10:00:00-07:00", "NextNextCleaningEnd": "2026-09-08T10:00:00-07:00", "NextCleaningCalendarLink": "https://calendar.google.com/calendar/render?action=TEMPLATE&text=Street+Cleaning+Reminder&details=Car+parked+at+Bay+St,+between+North+View+Ct++and++Polk+St+on+the+North.+Cleaning+will+begin+Tuesday,+August+25th+at+8:00+AM.&dates=20260825T080000/20260825T100000", "NextNextCleaningCalendarLink": "https://calendar.google.com/calendar/render?action=TEMPLATE&text=Street+Cleaning+Reminder&details=Car+parked+at+Bay+St,+between+North+View+Ct++and++Polk+St+on+the+North.+Cleaning+will+begin+Tuesday,+September+8th+at+8:00+AM.&dates=20260908T080000/20260908T100000" }, "South": { "NextCleaning": "2026-08-26T08:00:00-07:00", "NextNextCleaning": "2026-09-09T08:00:00-07:00", "NextCleaningEnd": "2026-08-26T10:00:00-07:00", "NextNextCleaningEnd": "2026-09-09T10:00:00-07:00", "NextCleaningCalendarLink": "https://calendar.google.com/calendar/render?action=TEMPLATE&text=Street+Cleaning+Reminder&details=Car+parked+at+Bay+St,+between+North+View+Ct++and++Polk+St+on+the+South.+Cleaning+will+begin+Wednesday,+August+26th+at+8:00+AM.&dates=20260826T080000/20260826T100000", "NextNextCleaningCalendarLink": "https://calendar.google.com/calendar/render?action=TEMPLATE&text=Street+Cleaning+Reminder&details=Car+parked+at+Bay+St,+between+North+View+Ct++and++Polk+St+on+the+South.+Cleaning+will+begin+Wednesday,+September+9th+at+8:00+AM.&dates=20260909T080000/20260909T100000" } } }, "geometry": { "type": "LineString", "coordinates": [ [ -122.422536330846995, 37.804473191519001 ], [ -122.423466052893005, 37.804354924891001 ] ] } },
{ "type": "Feature", "properties": { "Corridor": "Polk St", "Limits": "Bay St  -  North Point St", "StreetIdentifier": "Polk St, between Bay St  and  North Point St", "Sides": { "East": { "NextCleaning": "2026-09-07T08:00:00-07:00", "NextNextCleaning": "2026-09-21T08:00:00-07:00", "NextCleaningEnd": "2026-09-07T10:00:00-07:00", "NextNextCleaningEnd": "2026-09-21T10:00:00-07:00", "NextCleaningCalendarLink": "https://calendar.google.com/calendar/render?action=TEMPLATE&text=Street+Cleaning+Reminder&details=Car+parked+at+Polk+St,+between+Bay+St++and++North+Point+St+on+the+East.+Cleaning+will+begin+Monday,+September+7th+at+8:00+AM.&dates=20260907T080000/20260907T100000", "NextNextCleaningCalendarLink": "https://calendar.google.com/calendar/render?action=TEMPLATE&text=Street+Cleaning+Reminder&details=Car+parked+at+Polk+St,+between+Bay+St++and++North+Point+St+on+the+East.+Cleaning+will+begin+Monday,+September+21st+at+8:00+AM.&dates=20260921T080000/20260921T100000" }, "West": { "NextCleaning": "2026-08-25T06:00:00-07:00", "NextNextCleaning": "2026-09-08T06:00:00-07:00", "NextCleaningEnd": "2026-08-25T08:00:00-07:00", "NextNextCleaningEnd": "2026-09-08T08:00:00-07:00", "NextCleaningCalendarLink": "https://calendar.google.com/calendar/render?action=TEMPLATE&text=Street+Cleaning+Reminder&details=Car+parked+at+Polk+St,+between+Bay+St++and++North+Point+St+on+the+West.+Cleaning+will+begin+Tuesday,+August+25th+at+6:00+AM.&dates=20260825T060000/20260825T080000", "NextNextCleaningCalendarLink": "https://calendar.google.com/calendar/render?action=TEMPLATE&text=Street+Cleaning+Reminder&details=Car+parked+at+Polk+St,+between+Bay+St++and++North+Point+St+on+the+West.+Cleaning+will+begin+Tuesday,+September+8th+at+6:00+AM.&dates=20260908T060000/20260908T080000" } } }, "geometry": { "type": "LineString", "coordinates": [ [ -122.423466052893005, 37.804354924891001 ], [ -122.423655075271, 37.805286984452998 ] ] } },
{ "type": "Feature", "properties": { "Corridor": "Polk St", "Limits": "Francisco St  -  Bay St", "StreetIdentifier": "Polk St, between Francisco St  and  Bay St", "Sides": { "West": { "NextCleaning": "2026-08-25T06:00:00-07:00", "NextNextCleaning": "2026-09-08T06:00:00-07:00", "NextCleaningEnd": "2026-08-25T08:00:00-07:00", "NextNextCleaningEnd": "2026-09-08T08:00:00-07:00", "NextCleaningCalendarLink": "https://calendar.google.com/calendar/render?action=TEMPLATE&text=Street+Cleaning+Reminder&details=Car+parked+at+Polk+St,+between+Francisco+St++and++Bay+St+on+the+West.+Cleaning+will+begin+Tuesday,+August+25th+at+6:00+AM.&dates=20260825T060000/20260825T080000", "NextNextCleaningCalendarLink": "https://calendar.google.com/calendar/render?action=TEMPLATE&text=Street+Cleaning+Reminder&details=Car+parked+at+Polk+St,+between+Francisco+St++and++Bay+St+on+the+West.+Cleaning+will+begin+Tuesday,+September+8th+at+6:00+AM.&dates=20260908T060000/20260908T080000" } } }, "geometry": { "type": "LineString", "coordinates": [ [ -122.423274961933998, 37.803412639583001 ], [ -122.423466052893005, 37.804354924891001 ] ] } },
{ "type": "Feature", "properties": { "Corridor": "Beach St", "Limits": "Hyde St  -  Larkin St", "StreetIdentifier": "Beach St, between Hyde St  and  Larkin St", "Sides": { "North": { "NextCleaning": "2026-08-24T02:00:00-07:00", "NextNextCleaning": "2026-08-31T02:00:00-07:00", "NextCleaningEnd": "2026-08-24T06:00:00-07:00", "NextNextCleaningEnd": "2026-08-31T06:00:00-07:00", "NextCleaningCalendarLink": "https://calendar.google.com/calendar/render?action=TEMPLATE&text=Street+Cleaning+Reminder&details=Car+parked+at+Beach+St,+between+Hyde+St++and++Larkin+St+on+the+North.+Cleaning+will+begin+Monday,+August+24th+at+2:00+AM.&dates=20260824T020000/20260824T060000", "NextNextCleaningCalendarLink": "https://calendar.google.com/calendar/render?action=TEMPLATE&text=Street+Cleaning+Reminder&details=Car+parked+at+Beach+St,+between+Hyde+St++and++Larkin+St+on+the+North.+Cleaning+will+begin+Monday,+August+31st+at+2:00+AM.&dates=20260831T020000/20260831T060000" }, "South": { "NextCleaning": "2026-08-25T02:00:00-07:00", "NextNextCleaning": "2026-09-01T02:00:00-07:00", "NextCleaningEnd": "2026-08-25T06:00:00-07:00", "NextNextCleaningEnd": "2026-09-01T06:00:00-07:00", "NextCleaningCalendarLink": "https://calendar.google.com/calendar/render?action=TEMPLATE&text=Street+Cleaning+Reminder&details=Car+parked+at+Beach+St,+between+Hyde+St++and++Larkin+St+on+the+South.+Cleaning+will+begin+Tuesday,+August+25th+at+2:00+AM.&dates=20260825T020000/20260825T060000", "NextNextCleaningCalendarLink": "https://calendar.google.com/calendar/render?action=TEMPLATE&text=Street+Cleaning+Reminder&details=Car+parked+at+Beach+St,+between+Hyde+St++and++Larkin+St+on+the+South.+Cleaning+will+begin+Tuesday,+September+1st+at+2:00+AM.&dates=20260901T020000/20260901T060000" } } }, "geometry": { "type": "LineString", "coordinates": [ [ -122.420559965283999, 37.806657733070999 ], [ -122.422196207697993, 37.806436364417003 ] ] } },
{ "type": "Feature", "properties": { "Corridor": "Bay St", "Limits": "Hyde St  -  Larkin St", "StreetIdentifier": "Bay St, between Hyde St  and  Larkin St", "Sides": { "North": { "NextCleaning": "2026-08-25T08:00:00-07:00", "NextNextCleaning": "2026-09-08T08:00:00-07:00", "NextCleaningEnd": "2026-08-25T10:00:00-07:00", "NextNextCleaningEnd": "2026-09-08T10:00:00-07:00", "NextCleaningCalendarLink": "https://calendar.google.com/calendar/render?action=TEMPLATE&text=Street+Cleaning+Reminder&details=Car+parked+at+Bay+St,+between+Hyde+St++and++Larkin+St+on+the+North.+Cleaning+will+begin+Tuesday,+August+25th+at+8:00+AM.&dates=20260825T080000/20260825T100000", "NextNextCleaningCalendarLink": "https://calendar.google.com/calendar/render?action=TEMPLATE&text=Street+Cleaning+Reminder&details=Car+parked+at+Bay+St,+between+Hyde+St++and++Larkin+St+on+the+North.+Cleaning+will+begin+Tuesday,+September+8th+at+8:00+AM.&dates=20260908T080000/20260908T100000" }, "South": { "NextCleaning": "2026-08-26T08:00:00-07:00", "NextNextCleaning": "2026-09-09T08:00:00-07:00", "NextCleaningEnd": "2026-08-26T10:00:00-07:00", "NextNextCleaningEnd": "2026-09-09T10:00:00-07:00", "NextCleaningCalendarLink": "https://calendar.google.com/calendar/render?action=TEMPLATE&text=Street+Cleaning+Reminder&details=Car+parked+at+Bay+St,+between+Hyde+St++and++Larkin+St+on+the+South.+Cleaning+will+begin+Wednesday,+August+26th+at+8:00+AM.&dates=20260826T080000/20260826T100000", "NextNextCleaningCalendarLink": "https://calendar.google.com/calendar/render?action=TEMPLATE&text=Street+Cleaning+Reminder&details=Car+parked+at+Bay+St,+between+Hyde+St++and++Larkin+St+on+the+South.+Cleaning+will+begin+Wednesday,+September+9th+at+8:00+AM.&dates=20260909T080000/20260909T100000" } } }, "geometry": { "type": "LineString", "coordinates": [ [ -122.420178125844998, 37.804790307832 ], [ -122.421815316014005, 37.804564904199999 ] ] } },
{ "type": "Feature", "properties": { "Corridor": "Beach St", "Limits": "Polk St  -  End: 900-999 Block", "StreetIdentifier": "Beach St, between Polk St  and  End: 900and999 Block", "Sides": { "North": { "NextCleaning": "2026-08-24T02:00:00-07:00", "NextNextCleaning": "2026-08-31T02:00:00-07:00", "NextCleaningEnd": "2026-08-24T06:00:00-07:00", "NextNextCleaningEnd": "2026-08-31T06:00:00-07:00", "NextCleaningCalendarLink": "https://calendar.google.com/calendar/render?action=TEMPLATE&text=Street+Cleaning+Reminder&details=Car+parked+at+Beach+St,+between+Polk+St++and++End:+900and999+Block+on+the+North.+Cleaning+will+begin+Monday,+August+24th+at+2:00+AM.&dates=20260824T020000/20260824T060000", "NextNextCleaningCalendarLink": "https://calendar.google.com/calendar/render?action=TEMPLATE&text=Street+Cleaning+Reminder&details=Car+parked+at+Beach+St,+between+Polk+St++and++End:+900and999+Block+on+the+North.+Cleaning+will+begin+Monday,+August+31st+at+2:00+AM.&dates=20260831T020000/20260831T060000" }, "South": { "NextCleaning": "2026-08-25T02:00:00-07:00", "NextNextCleaning": "2026-09-01T02:00:00-07:00", "NextCleaningEnd": "2026-08-25T06:00:00-07:00", "NextNextCleaningEnd": "2026-09-01T06:00:00-07:00", "NextCleaningCalendarLink": "https://calendar.google.com/calendar/render?action=TEMPLATE&text=Street+Cleaning+Reminder&details=Car+parked+at+Beach+St,+between+Polk+St++and++End:+900and999+Block+on+the+South.+Cleaning+will+begin+Tuesday,+August+25th+at+2:00+AM.&dates=20260825T020000/20260825T060000", "NextNextCleaningCalendarLink": "https://calendar.google.com/calendar/render?action=TEMPLATE&text=Street+Cleaning+Reminder&details=Car+parked+at+Beach+St,+between+Polk+St++and++End:+900and999+Block+on+the+South.+Cleaning+will+begin+Tuesday,+September+1st+at+2:00+AM.&dates=20260901T020000/20260901T060000" } } }, "geometry": { "type": "LineString", "coordinates": [ [ -122.423844681031994, 37.806221894758998 ], [ -122.424853620272003, 37.806090617587998 ] ] } },
{ "type": "Feature", "properties": { "Corridor": "North Point St", "Limits": "Polk St  -  Van Ness Ave", "StreetIdentifier": "North Point St, between Polk St  and  Van Ness Ave", "Sides": { "North": { "NextCleaning": "2026-08-26T06:00:00-07:00", "NextNextCleaning": "2026-09-02T06:00:00-07:00", "NextCleaningEnd": "2026-08-26T08:00:00-07:00", "NextNextCleaningEnd": "2026-09-02T08:00:00-07:00", "NextCleaningCalendarLink": "https://calendar.google.com/calendar/render?action=TEMPLATE&text=Street+Cleaning+Reminder&details=Car+parked+at+North+Point+St,+between+Polk+St++and++Van+Ness+Ave+on+the+North.+Cleaning+will+begin+Wednesday,+August+26th+at+6:00+AM.&dates=20260826T060000/20260826T080000", "NextNextCleaningCalendarLink": "https://calendar.google.com/calendar/render?action=TEMPLATE&text=Street+Cleaning+Reminder&details=Car+parked+at+North+Point+St,+between+Polk+St++and++Van+Ness+Ave+on+the+North.+Cleaning+will+begin+Wednesday,+September+2nd+at+6:00+AM.&dates=20260902T060000/20260902T080000" }, "South": { "NextCleaning": "2026-08-25T08:00:00-07:00", "NextNextCleaning": "2026-09-08T08:00:00-07:00", "NextCleaningEnd": "2026-08-25T10:00:00-07:00", "NextNextCleaningEnd": "2026-09-08T10:00:00-07:00", "NextCleaningCalendarLink": "https://calendar.google.com/calendar/render?action=TEMPLATE&text=Street+Cleaning+Reminder&details=Car+parked+at+North+Point+St,+between+Polk+St++and++Van+Ness+Ave+on+the+South.+Cleaning+will+begin+Tuesday,+August+25th+at+8:00+AM.&dates=20260825T080000/20260825T100000", "NextNextCleaningCalendarLink": "https://calendar.google.com/calendar/render?action=TEMPLATE&text=Street+Cleaning+Reminder&details=Car+parked+at+North+Point+St,+between+Polk+St++and++Van+Ness+Ave+on+the+South.+Cleaning+will+begin+Tuesday,+September+8th+at+8:00+AM.&dates=20260908T080000/20260908T100000" } } }, "geometry": { "type": "LineString", "coordinates": [ [ -122.423655075271, 37.805286984452998 ], [ -122.425298563824995, 37.805077902752998 ] ] } },
{ "type": "Feature", "properties": { "Corridor": "Laguna St", "Limits": "Francisco St  -  Bay St", "StreetIdentifier": "Laguna St, between Francisco St  and  Bay St", "Sides": { "East": { "NextCleaning": "2026-09-03T09:00:00-07:00", "NextNextCleaning": "2026-09-17T09:00:00-07:00", "NextCleaningEnd": "2026-09-03T11:00:00-07:00", "NextNextCleaningEnd": "2026-09-17T11:00:00-07:00", "NextCleaningCalendarLink": "https://calendar.google.com/calendar/render?action=TEMPLATE&text=Street+Cleaning+Reminder&details=Car+parked+at+Laguna+St,+between+Francisco+St++and++Bay+St+on+the+East.+Cleaning+will+begin+Thursday,+September+3rd+at+9:00+AM.&dates=20260903T090000/20260903T110000", "NextNextCleaningCalendarLink": "https://calendar.google.com/calendar/render?action=TEMPLATE&text=Street+Cleaning+Reminder&details=Car+parked+at+Laguna+St,+between+Francisco+St++and++Bay+St+on+the+East.+Cleaning+will+begin+Thursday,+September+17th+at+9:00+AM.&dates=20260917T090000/20260917T110000" }, "West": { "NextCleaning": "2026-09-07T09:00:00-07:00", "NextNextCleaning": "2026-09-21T09:00:00-07:00", "NextCleaningEnd": "2026-09-07T11:00:00-07:00", "NextNextCleaningEnd": "2026-09-21T11:00:00-07:00", "NextCleaningCalendarLink": "https://calendar.google.com/calendar/render?action=TEMPLATE&text=Street+Cleaning+Reminder&details=Car+parked+at+Laguna+St,+between+Francisco+St++and++Bay+St+on+the+West.+Cleaning+will+begin+Monday,+September+7th+at+9:00+AM.&dates=20260907T090000/20260907T110000", "NextNextCleaningCalendarLink": "https://calendar.google.com/calendar/render?action=TEMPLATE&text=Street+Cleaning+Reminder&details=Car+parked+at+Laguna+St,+between+Francisco+St++and++Bay+St+on+the+West.+Cleaning+will+begin+Monday,+September+21st+at+9:00+AM.&dates=20260921T090000/20260921T110000" } } }, "geometry": { "type": "LineString", "coordinates": [ [ -122.431497699329, 37.802376296292998 ], [ -122.431679368855001, 37.803266736573001 ] ] } },
{ "type": "Feature", "properties": { "Corridor": "Laguna St", "Limits": "Bay St  -  North Point St", "StreetIdentifier": "Laguna St, between Bay St  and  North Point St", "Sides": { "East": { "NextCleaning": "2026-09-02T08:00:00-07:00", "NextNextCleaning": "2026-09-16T08:00:00-07:00", "NextCleaningEnd": "2026-09-02T10:00:00-07:00", "NextNextCleaningEnd": "2026-09-16T10:00:00-07:00", "NextCleaningCalendarLink": "https://calendar.google.com/calendar/render?action=TEMPLATE&text=Street+Cleaning+Reminder&details=Car+parked+at+Laguna+St,+between+Bay+St++and++North+Point+St+on+the+East.+Cleaning+will+begin+Wednesday,+September+2nd+at+8:00+AM.&dates=20260902T080000/20260902T100000", "NextNextCleaningCalendarLink": "https://calendar.google.com/calendar/render?action=TEMPLATE&text=Street+Cleaning+Reminder&details=Car+parked+at+Laguna+St,+between+Bay+St++and++North+Point+St+on+the+East.+Cleaning+will+begin+Wednesday,+September+16th+at+8:00+AM.&dates=20260916T080000/20260916T100000" }, "West": { "NextCleaning": "2026-09-01T10:00:00-07:00", "NextNextCleaning": "2026-09-15T10:00:00-07:00", "NextCleaningEnd": "2026-09-01T12:00:00-07:00", "NextNextCleaningEnd": "2026-09-15T12:00:00-07:00", "NextCleaningCalendarLink": "https://calendar.google.com/calendar/render?action=TEMPLATE&text=Street+Cleaning+Reminder&details=Car+parked+at+Laguna+St,+between+Bay+St++and++North+Point+St+on+the+West.+Cleaning+will+begin+Tuesday,+September+1st+at+10:00+AM.&dates=20260901T100000/20260901T120000", "NextNextCleaningCalendarLink": "https://calendar.google.com/calendar/render?action=TEMPLATE&text=Street+Cleaning+Reminder&details=Car+parked+at+Laguna+St,+between+Bay+St++and++North+Point+St+on+the+West.+Cleaning+will+begin+Tuesday,+September+15th+at+10:00+AM.&dates=20260915T100000/20260915T120000" } } }, "geometry": { "type": "LineString", "coordinates": [ [ -122.431679368855001, 37.803266736573001 ], [ -122.431874202708002, 37.804244608776997 ] ] } },
{ "type": "Feature", "properties": { "Corridor": "Bay St", "Limits": "Octavia St  -  Laguna St", "StreetIdentifier": "Bay St, between Octavia St  and  Laguna St", "Sides": { "North": { "NextCleaning": "2026-09-04T10:00:00-07:00", "NextNextCleaning": "2026-09-18T10:00:00-07:00", "NextCleaningEnd": "2026-09-04T12:00:00-07:00", "NextNextCleaningEnd": "2026-09-18T12:00:00-07:00", "NextCleaningCalendarLink": "https://calendar.google.com/calendar/render?action=TEMPLATE&text=Street+Cleaning+Reminder&details=Car+parked+at+Bay+St,+between+Octavia+St++and++Laguna+St+on+the+North.+Cleaning+will+begin+Friday,+September+4th+at+10:00+AM.&dates=20260904T100000/20260904T120000", "NextNextCleaningCalendarLink": "https://calendar.google.com/calendar/render?action=TEMPLATE&text=Street+Cleaning+Reminder&details=Car+parked+at+Bay+St,+between+Octavia+St++and++Laguna+St+on+the+North.+Cleaning+will+begin+Friday,+September+18th+at+10:00+AM.&dates=20260918T100000/20260918T120000" }, "South": { "NextCleaning": "2026-09-04T10:00:00-07:00", "NextNextCleaning": "2026-09-18T10:00:00-07:00", "NextCleaningEnd": "2026-09-04T12:00:00-07:00", "NextNextCleaningEnd": "2026-09-18T12:00:00-07:00", "NextCleaningCalendarLink": "https://calendar.google.com/calendar/render?action=TEMPLATE&text=Street+Cleaning+Reminder&details=Car+parked+at+Bay+St,+between+Octavia+St++and++Laguna+St+on+the+South.+Cleaning+will+begin+Friday,+September+4th+at+10:00+AM.&dates=20260904T100000/20260904T120000", "NextNextCleaningCalendarLink": "https://calendar.google.com/calendar/render?action=TEMPLATE&text=Street+Cleaning+Reminder&details=Car+parked+at+Bay+St,+between+Octavia+St++and++Laguna+St+on+the+South.+Cleaning+will+begin+Friday,+September+18th+at+10:00+AM.&dates=20260918T100000/20260918T120000" } } }, "geometry": { "type": "LineString", "coordinates": [ [ -122.430044996844003, 37.803517818956003 ], [ -122.431679368855001, 37.803266736573001 ] ] } },
{ "type": "Feature", "properties": { "Corridor": "Laguna St", "Limits": "North Point St  -  Marina Blvd", "StreetIdentifier": "Laguna St, between North Point St  and  Marina Blvd", "Sides": { "East": { "NextCleaning": "2026-09-02T08:00:00-07:00", "NextNextCleaning": "2026-09-16T08:00:00-07:00", "NextCleaningEnd": "2026-09-02T10:00:00-07:00", "NextNextCleaningEnd": "2026-09-16T10:00:00-07:00", "NextCleaningCalendarLink": "https://calendar.google.com/calendar/render?action=TEMPLATE&text=Street+Cleaning+Reminder&details=Car+parked+at+Laguna+St,+between+North+Point+St++and++Marina+Blvd+on+the+East.+Cleaning+will+begin+Wednesday,+September+2nd+at+8:00+AM.&dates=20260902T080000/20260902T100000", "NextNextCleaningCalendarLink": "https://calendar.google.com/calendar/render?action=TEMPLATE&text=Street+Cleaning+Reminder&details=Car+parked+at+Laguna+St,+between+North+Point+St++and++Marina+Blvd+on+the+East.+Cleaning+will+begin+Wednesday,+September+16th+at+8:00+AM.&dates=20260916T080000/20260916T100000" }, "West": { "NextCleaning": "2026-09-01T10:00:00-07:00", "NextNextCleaning": "2026-09-15T10:00:00-07:00", "NextCleaningEnd": "2026-09-01T12:00:00-07:00", "NextNextCleaningEnd": "2026-09-15T12:00:00-07:00", "NextCleaningCalendarLink": "https://calendar.google.com/calendar/render?action=TEMPLATE&text=Street+Cleaning+Reminder&details=Car+parked+at+Laguna+St,+between+North+Point+St++and++Marina+Blvd+on+the+West.+Cleaning+will+begin+Tuesday,+September+1st+at+10:00+AM.&dates=20260901T100000/20260901T120000", "NextNextCleaningCalendarLink": "https://calendar.google.com/calendar/render?action=TEMPLATE&text=Street+Cleaning+Reminder&details=Car+parked+at+Laguna+St,+between+North+Point+St++and++Marina+Blvd+on+the+West.+Cleaning+will+begin+Tuesday,+September+15th+at+10:00+AM.&dates=20260915T100000/20260915T120000" } } }, "geometry": { "type": "LineString", "coordinates": [ [ -122.431874202708002, 37.804244608776997 ], [ -122.432049122284994, 37.805122509581999 ], [ -122.432090716578003, 37.805199545360999 ] ] } },
{ "type": "Feature", "properties": { "Corridor": "Bay St", "Limits": "Gough St  -  Octavia St", "StreetIdentifier": "Bay St, between Gough St  and  Octavia St", "Sides": { "North": { "NextCleaning": "2026-09-01T10:00:00-07:00", "NextNextCleaning": "2026-09-15T10:00:00-07:00", "NextCleaningEnd": "2026-09-01T12:00:00-07:00", "NextNextCleaningEnd": "2026-09-15T12:00:00-07:00", "NextCleaningCalendarLink": "https://calendar.google.com/calendar/render?action=TEMPLATE&text=Street+Cleaning+Reminder&details=Car+parked+at+Bay+St,+between+Gough+St++and++Octavia+St+on+the+North.+Cleaning+will+begin+Tuesday,+September+1st+at+10:00+AM.&dates=20260901T100000/20260901T120000", "NextNextCleaningCalendarLink": "https://calendar.google.com/calendar/render?action=TEMPLATE&text=Street+Cleaning+Reminder&details=Car+parked+at+Bay+St,+between+Gough+St++and++Octavia+St+on+the+North.+Cleaning+will+begin+Tuesday,+September+15th+at+10:00+AM.&dates=20260915T100000/20260915T120000" }, "South": { "NextCleaning": "2026-09-04T10:00:00-07:00", "NextNextCleaning": "2026-09-18T10:00:00-07:00", "NextCleaningEnd": "2026-09-04T12:00:00-07:00", "NextNextCleaningEnd": "2026-09-18T12:00:00-07:00", "NextCleaningCalendarLink": "https://calendar.google.com/calendar/render?action=TEMPLATE&text=Street+Cleaning+Reminder&details=Car+parked+at+Bay+St,+between+Gough+St++and++Octavia+St+on+the+South.+Cleaning+will+begin+Friday,+September+4th+at+10:00+AM.&dates=20260904T100000/20260904T120000", "NextNextCleaningCalendarLink": "https://calendar.google.com/calendar/render?action=TEMPLATE&text=Street+Cleaning+Reminder&details=Car+parked+at+Bay+St,+between+Gough+St++and++Octavia+St+on+the+South.+Cleaning+will+begin+Friday,+September+18th+at+10:00+AM.&dates=20260918T100000/20260918T120000" } } }, "geometry": { "type": "LineString", "coordinates": [ [ -122.428400274430999, 37.803727129858999 ], [ -122.430044996844003, 37.803517818956003 ] ] } },
{ "type": "Feature", "properties": { "Corridor": "Octavia St", "Limits": "Francisco St  -  Bay St", "StreetIdentifier": "Octavia St, between Francisco St  and  Bay St", "Sides": { "East": { "NextCleaning": "2026-09-07T09:00:00-07:00", "NextNextCleaning": "2026-09-21T09:00:00-07:00", "NextCleaningEnd": "2026-09-07T11:00:00-07:00", "NextNextCleaningEnd": "2026-09-21T11:00:00-07:00", "NextCleaningCalendarLink": "https://calendar.google.com/calendar/render?action=TEMPLATE&text=Street+Cleaning+Reminder&details=Car+parked+at+Octavia+St,+between+Francisco+St++and++Bay+St+on+the+East.+Cleaning+will+begin+Monday,+September+7th+at+9:00+AM.&dates=20260907T090000/20260907T110000", "NextNextCleaningCalendarLink": "https://calendar.google.com/calendar/render?action=TEMPLATE&text=Street+Cleaning+Reminder&details=Car+parked+at+Octavia+St,+between+Francisco+St++and++Bay+St+on+the+East.+Cleaning+will+begin+Monday,+September+21st+at+9:00+AM.&dates=20260921T090000/20260921T110000" }, "West": { "NextCleaning": "2026-09-03T09:00:00-07:00", "NextNextCleaning": "2026-09-17T09:00:00-07:00", "NextCleaningEnd": "2026-09-03T11:00:00-07:00", "NextNextCleaningEnd": "2026-09-17T11:00:00-07:00", "NextCleaningCalendarLink": "https://calendar.google.com/calendar/render?action=TEMPLATE&text=Street+Cleaning+Reminder&details=Car+parked+at+Octavia+St,+between+Francisco+St++and++Bay+St+on+the+West.+Cleaning+will+begin+Thursday,+September+3rd+at+9:00+AM.&dates=20260903T090000/20260903T110000", "NextNextCleaningCalendarLink": "https://calendar.google.com/calendar/render?action=TEMPLATE&text=Street+Cleaning+Reminder&details=Car+parked+at+Octavia+St,+between+Francisco+St++and++Bay+St+on+the+West.+Cleaning+will+begin+Thursday,+September+17th+at+9:00+AM.&dates=20260917T090000/20260917T110000" } } }, "geometry": { "type": "LineString", "coordinates": [ [ -122.429855403282005, 37.802583329215999 ], [ -122.430044996844003, 37.803517818956003 ] ] } },
{ "type": "Feature", "properties": { "Corridor": "Gough St", "Limits": "Francisco St  -  Bay St", "StreetIdentifier": "Gough St, between Francisco St  and  Bay St", "Sides": { "East": { "NextCleaning": "2026-09-03T08:00:00-07:00", "NextNextCleaning": "2026-09-17T08:00:00-07:00", "NextCleaningEnd": "2026-09-03T10:00:00-07:00", "NextNextCleaningEnd": "2026-09-17T10:00:00-07:00", "NextCleaningCalendarLink": "https://calendar.google.com/calendar/render?action=TEMPLATE&text=Street+Cleaning+Reminder&details=Car+parked+at+Gough+St,+between+Francisco+St++and++Bay+St+on+the+East.+Cleaning+will+begin+Thursday,+September+3rd+at+8:00+AM.&dates=20260903T080000/20260903T100000", "NextNextCleaningCalendarLink": "https://calendar.google.com/calendar/render?action=TEMPLATE&text=Street+Cleaning+Reminder&details=Car+parked+at+Gough+St,+between+Francisco+St++and++Bay+St+on+the+East.+Cleaning+will+begin+Thursday,+September+17th+at+8:00+AM.&dates=20260917T080000/20260917T100000" }, "West": { "NextCleaning": "2026-09-07T08:00:00-07:00", "NextNextCleaning": "2026-09-21T08:00:00-07:00", "NextCleaningEnd": "2026-09-07T10:00:00-07:00", "NextNextCleaningEnd": "2026-09-21T10:00:00-07:00", "NextCleaningCalendarLink": "https://calendar.google.com/calendar/render?action=TEMPLATE&text=Street+Cleaning+Reminder&details=Car+parked+at+Gough+St,+between+Francisco+St++and++Bay+St+on+the+West.+Cleaning+will+begin+Monday,+September+7th+at+8:00+AM.&dates=20260907T080000/20260907T100000", "NextNextCleaningCalendarLink": "https://calendar.google.com/calendar/render?action=TEMPLATE&text=Street+Cleaning+Reminder&details=Car+parked+at+Gough+St,+between+Francisco+St++and++Bay+St+on+the+West.+Cleaning+will+begin+Monday,+September+21st+at+8:00+AM.&dates=20260921T080000/20260921T100000" } } }, "geometry": { "type": "LineString", "coordinates": [ [ -122.428210306612996, 37.802790691151998 ], [ -122.428400274430999, 37.803727129858999 ] ] } },
{ "type": "Feature", "properties": { "Corridor": "Bay St", "Limits": "Franklin St  -  Gough St", "StreetIdentifier": "Bay St, between Franklin St  and  Gough St", "Sides": { "North": { "NextCleaning": "2026-09-01T10:00:00-07:00", "NextNextCleaning": "2026-09-15T10:00:00-07:00", "NextCleaningEnd": "2026-09-01T12:00:00-07:00", "NextNextCleaningEnd": "2026-09-15T12:00:00-07:00", "NextCleaningCalendarLink": "https://calendar.google.com/calendar/render?action=TEMPLATE&text=Street+Cleaning+Reminder&details=Car+parked+at+Bay+St,+between+Franklin+St++and++Gough+St+on+the+North.+Cleaning+will+begin+Tuesday,+September+1st+at+10:00+AM.&dates=20260901T100000/20260901T120000", "NextNextCleaningCalendarLink": "https://calendar.google.com/calendar/render?action=TEMPLATE&text=Street+Cleaning+Reminder&details=Car+parked+at+Bay+St,+between+Franklin+St++and++Gough+St+on+the+North.+Cleaning+will+begin+Tuesday,+September+15th+at+10:00+AM.&dates=20260915T100000/20260915T120000" }, "South": { "NextCleaning": "2026-09-04T10:00:00-07:00", "NextNextCleaning": "2026-09-18T10:00:00-07:00", "NextCleaningEnd": "2026-09-04T12:00:00-07:00", "NextNextCleaningEnd": "2026-09-18T12:00:00-07:00", "NextCleaningCalendarLink": "https://calendar.google.com/calendar/render?action=TEMPLATE&text=Street+Cleaning+Reminder&details=Car+parked+at+Bay+St,+between+Franklin+St++and++Gough+St+on+the+South.+Cleaning+will+begin+Friday,+September+4th+at+10:00+AM.&dates=20260904T100000/20260904T120000", "NextNextCleaningCalendarLink": "https://calendar.google.com/calendar/render?action=TEMPLATE&text=Street+Cleaning+Reminder&details=Car+parked+at+Bay+St,+between+Franklin+St++and++Gough+St+on+the+South.+Cleaning+will+begin+Friday,+September+18th+at+10:00+AM.&dates=20260918T100000/20260918T120000" } } }, "geometry": { "type": "LineString", "coordinates": [ [ -122.426755543189003, 37.803936417812999 ], [ -122.428400274430999, 37.803727129858999 ] ] } },
{ "type": "Feature", "properties": { "Corridor": "Bay St", "Limits": "Fort Mason 21    -  Franklin St", "StreetIdentifier": "Bay St, between Fort Mason 21    and  Franklin St", "Sides": { "L": { "NextCleaning": "2026-09-04T10:00:00-07:00", "NextNextCleaning": "2026-09-18T10:00:00-07:00", "NextCleaningEnd": "2026-09-04T12:00:00-07:00", "NextNextCleaningEnd": "2026-09-18T12:00:00-07:00", "NextCleaningCalendarLink": "https://calendar.google.com/calendar/render?action=TEMPLATE&text=Street+Cleaning+Reminder&details=Car+parked+at+Bay+St,+between+Fort+Mason+21++++and++Franklin+St+on+the+L.+Cleaning+will+begin+Friday,+September+4th+at+10:00+AM.&dates=20260904T100000/20260904T120000", "NextNextCleaningCalendarLink": "https://calendar.google.com/calendar/render?action=TEMPLATE&text=Street+Cleaning+Reminder&details=Car+parked+at+Bay+St,+between+Fort+Mason+21++++and++Franklin+St+on+the+L.+Cleaning+will+begin+Friday,+September+18th+at+10:00+AM.&dates=20260918T100000/20260918T120000" }, "R": { "NextCleaning": "2026-08-25T06:00:00-07:00", "NextNextCleaning": "2026-09-08T06:00:00-07:00", "NextCleaningEnd": "2026-08-25T08:00:00-07:00", "NextNextCleaningEnd": "2026-09-08T08:00:00-07:00", "NextCleaningCalendarLink": "https://calendar.google.com/calendar/render?action=TEMPLATE&text=Street+Cleaning+Reminder&details=Car+parked+at+Bay+St,+between+Fort+Mason+21++++and++Franklin+St+on+the+R.+Cleaning+will+begin+Tuesday,+August+25th+at+6:00+AM.&dates=20260825T060000/20260825T080000", "NextNextCleaningCalendarLink": "https://calendar.google.com/calendar/render?action=TEMPLATE&text=Street+Cleaning+Reminder&details=Car+parked+at+Bay+St,+between+Fort+Mason+21++++and++Franklin+St+on+the+R.+Cleaning+will+begin+Tuesday,+September+8th+at+6:00+AM.&dates=20260908T060000/20260908T080000" } } }, "geometry": { "type": "LineString", "coordinates": [ [ -122.425429458693003, 37.804105141009003 ], [ -122.426755543189003, 37.803936417812999 ] ] } },
{ "type": "Feature", "properties": { "Corridor": "Franklin St", "Limits": "Francisco St  -  Bay St", "StreetIdentifier": "Franklin St, between Francisco St  and  Bay St", "Sides": { "East": { "NextCleaning": "2026-09-07T08:00:00-07:00", "NextNextCleaning": "2026-09-21T08:00:00-07:00", "NextCleaningEnd": "2026-09-07T10:00:00-07:00", "NextNextCleaningEnd": "2026-09-21T10:00:00-07:00", "NextCleaningCalendarLink": "https://calendar.google.com/calendar/render?action=TEMPLATE&text=Street+Cleaning+Reminder&details=Car+parked+at+Franklin+St,+between+Francisco+St++and++Bay+St+on+the+East.+Cleaning+will+begin+Monday,+September+7th+at+8:00+AM.&dates=20260907T080000/20260907T100000", "NextNextCleaningCalendarLink": "https://calendar.google.com/calendar/render?action=TEMPLATE&text=Street+Cleaning+Reminder&details=Car+parked+at+Franklin+St,+between+Francisco+St++and++Bay+St+on+the+East.+Cleaning+will+begin+Monday,+September+21st+at+8:00+AM.&dates=20260921T080000/20260921T100000" }, "West": { "NextCleaning": "2026-09-03T08:00:00-07:00", "NextNextCleaning": "2026-09-17T08:00:00-07:00", "NextCleaningEnd": "2026-09-03T10:00:00-07:00", "NextNextCleaningEnd": "2026-09-17T10:00:00-07:00", "NextCleaningCalendarLink": "https://calendar.google.com/calendar/render?action=TEMPLATE&text=Street+Cleaning+Reminder&details=Car+parked+at+Franklin+St,+between+Francisco+St++and++Bay+St+on+the+West.+Cleaning+will+begin+Thursday,+September+3rd+at+8:00+AM.&dates=20260903T080000/20260903T100000", "NextNextCleaningCalendarLink": "https://calendar.google.com/calendar/render?action=TEMPLATE&text=Street+Cleaning+Reminder&details=Car+parked+at+Franklin+St,+between+Francisco+St++and++Bay+St+on+the+West.+Cleaning+will+begin+Thursday,+September+17th+at+8:00+AM.&dates=20260917T080000/20260917T100000" } } }, "geometry": { "type": "LineString", "coordinates": [ [ -122.426565200764003, 37.802998030486002 ], [ -122.426755543189003, 37.803936417812999 ] ] } },
{ "type": "Feature", "properties": { "Corridor": "Van Ness Ave", "Limits": "Francisco St  -  Bay St", "StreetIdentifier": "Van Ness Ave, between Francisco St  and  Bay St", "Sides": { "West": { "NextCleaning": "2026-08-24T07:00:00-07:00", "NextNextCleaning": "2026-09-14T07:00:00-07:00", "NextCleaningEnd": "2026-08-24T08:00:00-07:00", "NextNextCleaningEnd": "2026-09-14T08:00:00-07:00", "NextCleaningCalendarLink": "https://calendar.google.com/calendar/render?action=TEMPLATE&text=Street+Cleaning+Reminder&details=Car+parked+at+Van+Ness+Ave,+between+Francisco+St++and++Bay+St+on+the+West.+Cleaning+will+begin+Monday,+August+24th+at+7:00+AM.&dates=20260824T070000/20260824T080000", "NextNextCleaningCalendarLink": "https://calendar.google.com/calendar/render?action=TEMPLATE&text=Street+Cleaning+Reminder&details=Car+parked+at+Van+Ness+Ave,+between+Francisco+St++and++Bay+St+on+the+West.+Cleaning+will+begin+Monday,+September+14th+at+7:00+AM.&dates=20260914T070000/20260914T080000" } } }, "geometry": { "type": "LineString", "coordinates": [ [ -122.424918803929003, 37.803205508078001 ], [ -122.425041822904006, 37.803293493407999 ], [ -122.425190635845993, 37.804027216785997 ], [ -122.425109521348006, 37.804145845786998 ] ] } },
{ "type": "Feature", "properties": { "Corridor": "Van Ness Ave", "Limits": "Francisco St  -  Bay St", "StreetIdentifier": "Van Ness Ave, between Francisco St  and  Bay St", "Sides": { "East": { "NextCleaning": "2026-08-25T06:00:00-07:00", "NextNextCleaning": "2026-09-08T06:00:00-07:00", "NextCleaningEnd": "2026-08-25T08:00:00-07:00", "NextNextCleaningEnd": "2026-09-08T08:00:00-07:00", "NextCleaningCalendarLink": "https://calendar.google.com/calendar/render?action=TEMPLATE&text=Street+Cleaning+Reminder&details=Car+parked+at+Van+Ness+Ave,+between+Francisco+St++and++Bay+St+on+the+East.+Cleaning+will+begin+Tuesday,+August+25th+at+6:00+AM.&dates=20260825T060000/20260825T080000", "NextNextCleaningCalendarLink": "https://calendar.google.com/calendar/render?action=TEMPLATE&text=Street+Cleaning+Reminder&details=Car+parked+at+Van+Ness+Ave,+between+Francisco+St++and++Bay+St+on+the+East.+Cleaning+will+begin+Tuesday,+September+8th+at+6:00+AM.&dates=20260908T060000/20260908T080000" } } }, "geometry": { "type": "LineString", "coordinates": [ [ -122.424918803929003, 37.803205508078001 ], [ -122.424836767211005, 37.803319587449998 ], [ -122.424987205600004, 37.80406133484 ], [ -122.425109521348006, 37.804145845786998 ] ] } },
{ "type": "Feature", "properties": { "Corridor": "Bay St", "Limits": "Polk St  -  Van Ness Ave", "StreetIdentifier": "Bay St, between Polk St  and  Van Ness Ave", "Sides": { "North": { "NextCleaning": "2026-08-25T08:00:00-07:00", "NextNextCleaning": "2026-09-08T08:00:00-07:00", "NextCleaningEnd": "2026-08-25T10:00:00-07:00", "NextNextCleaningEnd": "2026-09-08T10:00:00-07:00", "NextCleaningCalendarLink": "https://calendar.google.com/calendar/render?action=TEMPLATE&text=Street+Cleaning+Reminder&details=Car+parked+at+Bay+St,+between+Polk+St++and++Van+Ness+Ave+on+the+North.+Cleaning+will+begin+Tuesday,+August+25th+at+8:00+AM.&dates=20260825T080000/20260825T100000", "NextNextCleaningCalendarLink": "https://calendar.google.com/calendar/render?action=TEMPLATE&text=Street+Cleaning+Reminder&details=Car+parked+at+Bay+St,+between+Polk+St++and++Van+Ness+Ave+on+the+North.+Cleaning+will+begin+Tuesday,+September+8th+at+8:00+AM.&dates=20260908T080000/20260908T100000" }, "South": { "NextCleaning": "2026-08-24T06:00:00-07:00", "NextNextCleaning": "2026-09-02T06:00:00-07:00", "NextCleaningEnd": "2026-08-24T08:00:00-07:00", "NextNextCleaningEnd": "2026-09-14T08:00:00-07:00", "NextCleaningCalendarLink": "https://calendar.google.com/calendar/render?action=TEMPLATE&text=Street+Cleaning+Reminder&details=Car+parked+at+Bay+St,+between+Polk+St++and++Van+Ness+Ave+on+the+South.+Cleaning+will+begin+Monday,+August+24th+at+6:00+AM.&dates=20260824T060000/20260824T080000", "NextNextCleaningCalendarLink": "https://calendar.google.com/calendar/render?action=TEMPLATE&text=Street+Cleaning+Reminder&details=Car+parked+at+Bay+St,+between+Polk+St++and++Van+Ness+Ave+on+the+South.+Cleaning+will+begin+Monday,+September+14th+at+6:00+AM.&dates=20260914T060000/20260914T080000" } } }, "geometry": { "type": "LineString", "coordinates": [ [ -122.423466052893005, 37.804354924891001 ], [ -122.425109521348006, 37.804145845786998 ] ] } },
{ "type": "Feature", "properties": { "Corridor": "Van Ness Ave", "Limits": "Bay St  -  North Point St", "StreetIdentifier": "Van Ness Ave, between Bay St  and  North Point St", "Sides": { "East": { "NextCleaning": "2026-08-25T06:00:00-07:00", "NextNextCleaning": "2026-09-08T06:00:00-07:00", "NextCleaningEnd": "2026-08-25T08:00:00-07:00", "NextNextCleaningEnd": "2026-09-08T08:00:00-07:00", "NextCleaningCalendarLink": "https://calendar.google.com/calendar/render?action=TEMPLATE&text=Street+Cleaning+Reminder&details=Car+parked+at+Van+Ness+Ave,+between+Bay+St++and++North+Point+St+on+the+East.+Cleaning+will+begin+Tuesday,+August+25th+at+6:00+AM.&dates=20260825T060000/20260825T080000", "NextNextCleaningCalendarLink": "https://calendar.google.com/calendar/render?action=TEMPLATE&text=Street+Cleaning+Reminder&details=Car+parked+at+Van+Ness+Ave,+between+Bay+St++and++North+Point+St+on+the+East.+Cleaning+will+begin+Tuesday,+September+8th+at+6:00+AM.&dates=20260908T060000/20260908T080000" } } }, "geometry": { "type": "LineString", "coordinates": [ [ -122.425109521348006, 37.804145845786998 ], [ -122.425025895610005, 37.804252095666001 ], [ -122.425177116691998, 37.804997682492001 ], [ -122.425298563824995, 37.805077902752998 ] ] } },
{ "type": "Feature", "properties": { "Corridor": "Van Ness Ave", "Limits": "Bay St  -  North Point St", "StreetIdentifier": "Van Ness Ave, between Bay St  and  North Point St", "Sides": { "West": { "NextCleaning": "2026-08-28T06:00:00-07:00", "NextNextCleaning": "2026-09-11T06:00:00-07:00", "NextCleaningEnd": "2026-08-28T08:00:00-07:00", "NextNextCleaningEnd": "2026-09-11T08:00:00-07:00", "NextCleaningCalendarLink": "https://calendar.google.com/calendar/render?action=TEMPLATE&text=Street+Cleaning+Reminder&details=Car+parked+at+Van+Ness+Ave,+between+Bay+St++and++North+Point+St+on+the+West.+Cleaning+will+begin+Friday,+August+28th+at+6:00+AM.&dates=20260828T060000/20260828T080000", "NextNextCleaningCalendarLink": "https://calendar.google.com/calendar/render?action=TEMPLATE&text=Street+Cleaning+Reminder&details=Car+parked+at+Van+Ness+Ave,+between+Bay+St++and++North+Point+St+on+the+West.+Cleaning+will+begin+Friday,+September+11th+at+6:00+AM.&dates=20260911T060000/20260911T080000" } } }, "geometry": { "type": "LineString", "coordinates": [ [ -122.425109521348006, 37.804145845786998 ], [ -122.425230954843997, 37.804226006908003 ], [ -122.425382155597006, 37.804971484139998 ], [ -122.425298563824995, 37.805077902752998 ] ] } },
{ "type": "Feature", "properties": { "Corridor": "Bay St", "Limits": "n Ness Ave  -  Fort Mason 21", "StreetIdentifier": "Bay St, between n Ness Ave  and  Fort Mason 21", "Sides": { "L": { "NextCleaning": "2026-09-04T10:00:00-07:00", "NextNextCleaning": "2026-09-18T10:00:00-07:00", "NextCleaningEnd": "2026-09-04T12:00:00-07:00", "NextNextCleaningEnd": "2026-09-18T12:00:00-07:00", "NextCleaningCalendarLink": "https://calendar.google.com/calendar/render?action=TEMPLATE&text=Street+Cleaning+Reminder&details=Car+parked+at+Bay+St,+between+n+Ness+Ave++and++Fort+Mason+21+on+the+L.+Cleaning+will+begin+Friday,+September+4th+at+10:00+AM.&dates=20260904T100000/20260904T120000", "NextNextCleaningCalendarLink": "https://calendar.google.com/calendar/render?action=TEMPLATE&text=Street+Cleaning+Reminder&details=Car+parked+at+Bay+St,+between+n+Ness+Ave++and++Fort+Mason+21+on+the+L.+Cleaning+will+begin+Friday,+September+18th+at+10:00+AM.&dates=20260918T100000/20260918T120000" }, "R": { "NextCleaning": "2026-08-25T06:00:00-07:00", "NextNextCleaning": "2026-09-08T06:00:00-07:00", "NextCleaningEnd": "2026-08-25T08:00:00-07:00", "NextNextCleaningEnd": "2026-09-08T08:00:00-07:00", "NextCleaningCalendarLink": "https://calendar.google.com/calendar/render?action=TEMPLATE&text=Street+Cleaning+Reminder&details=Car+parked+at+Bay+St,+between+n+Ness+Ave++and++Fort+Mason+21+on+the+R.+Cleaning+will+begin+Tuesday,+August+25th+at+6:00+AM.&dates=20260825T060000/20260825T080000", "NextNextCleaningCalendarLink": "https://calendar.google.com/calendar/render?action=TEMPLATE&text=Street+Cleaning+Reminder&details=Car+parked+at+Bay+St,+between+n+Ness+Ave++and++Fort+Mason+21+on+the+R.+Cleaning+will+begin+Tuesday,+September+8th+at+6:00+AM.&dates=20260908T060000/20260908T080000" } } }, "geometry": { "type": "LineString", "coordinates": [ [ -122.425109521348006, 37.804145845786998 ], [ -122.425429458693003, 37.804105141009003 ] ] } },
{ "type": "Feature", "properties": { "Corridor": "Van Ness Ave", "Limits": "North Point St  -  End:  Block", "StreetIdentifier": "Van Ness Ave, between North Point St  and  End:  Block", "Sides": { "R": { "NextCleaning": "2026-08-25T06:00:00-07:00", "NextNextCleaning": "2026-09-08T06:00:00-07:00", "NextCleaningEnd": "2026-08-25T08:00:00-07:00", "NextNextCleaningEnd": "2026-09-08T08:00:00-07:00", "NextCleaningCalendarLink": "https://calendar.google.com/calendar/render?action=TEMPLATE&text=Street+Cleaning+Reminder&details=Car+parked+at+Van+Ness+Ave,+between+North+Point+St++and++End:++Block+on+the+R.+Cleaning+will+begin+Tuesday,+August+25th+at+6:00+AM.&dates=20260825T060000/20260825T080000", "NextNextCleaningCalendarLink": "https://calendar.google.com/calendar/render?action=TEMPLATE&text=Street+Cleaning+Reminder&details=Car+parked+at+Van+Ness+Ave,+between+North+Point+St++and++End:++Block+on+the+R.+Cleaning+will+begin+Tuesday,+September+8th+at+6:00+AM.&dates=20260908T060000/20260908T080000" } } }, "geometry": { "type": "LineString", "coordinates": [ [ -122.425298563824995, 37.805077902752998 ], [ -122.425215284369997, 37.805185864664999 ], [ -122.425366827798996, 37.805933020048997 ], [ -122.425477270217996, 37.805958977479001 ] ] } },
{ "type": "Feature", "properties": { "Corridor": "Van Ness Ave", "Limits": "North Point St  -  End:  Block", "StreetIdentifier": "Van Ness Ave, between North Point St  and  End:  Block", "Sides": { "L": { "NextCleaning": "2026-08-28T06:00:00-07:00", "NextNextCleaning": "2026-09-11T06:00:00-07:00", "NextCleaningEnd": "2026-08-28T08:00:00-07:00", "NextNextCleaningEnd": "2026-09-11T08:00:00-07:00", "NextCleaningCalendarLink": "https://calendar.google.com/calendar/render?action=TEMPLATE&text=Street+Cleaning+Reminder&details=Car+parked+at+Van+Ness+Ave,+between+North+Point+St++and++End:++Block+on+the+L.+Cleaning+will+begin+Friday,+August+28th+at+6:00+AM.&dates=20260828T060000/20260828T080000", "NextNextCleaningCalendarLink": "https://calendar.google.com/calendar/render?action=TEMPLATE&text=Street+Cleaning+Reminder&details=Car+parked+at+Van+Ness+Ave,+between+North+Point+St++and++End:++Block+on+the+L.+Cleaning+will+begin+Friday,+September+11th+at+6:00+AM.&dates=20260911T060000/20260911T080000" } } }, "geometry": { "type": "LineString", "coordinates": [ [ -122.425298563824995, 37.805077902752998 ], [ -122.425420737850999, 37.805161706172001 ], [ -122.425571372256996, 37.80590437072 ], [ -122.425477270217996, 37.805958977479001 ] ] } },
{ "type": "Feature", "properties": { "Corridor": "Polk St", "Limits": "North Point St  -  Beach St", "StreetIdentifier": "Polk St, between North Point St  and  Beach St", "Sides": { "East": { "NextCleaning": "2026-08-25T02:00:00-07:00", "NextNextCleaning": "2026-09-01T02:00:00-07:00", "NextCleaningEnd": "2026-08-25T06:00:00-07:00", "NextNextCleaningEnd": "2026-09-01T06:00:00-07:00", "NextCleaningCalendarLink": "https://calendar.google.com/calendar/render?action=TEMPLATE&text=Street+Cleaning+Reminder&details=Car+parked+at+Polk+St,+between+North+Point+St++and++Beach+St+on+the+East.+Cleaning+will+begin+Tuesday,+August+25th+at+2:00+AM.&dates=20260825T020000/20260825T060000", "NextNextCleaningCalendarLink": "https://calendar.google.com/calendar/render?action=TEMPLATE&text=Street+Cleaning+Reminder&details=Car+parked+at+Polk+St,+between+North+Point+St++and++Beach+St+on+the+East.+Cleaning+will+begin+Tuesday,+September+1st+at+2:00+AM.&dates=20260901T020000/20260901T060000" }, "West": { "NextCleaning": "2026-08-24T02:00:00-07:00", "NextNextCleaning": "2026-08-31T02:00:00-07:00", "NextCleaningEnd": "2026-08-24T06:00:00-07:00", "NextNextCleaningEnd": "2026-08-31T06:00:00-07:00", "NextCleaningCalendarLink": "https://calendar.google.com/calendar/render?action=TEMPLATE&text=Street+Cleaning+Reminder&details=Car+parked+at+Polk+St,+between+North+Point+St++and++Beach+St+on+the+West.+Cleaning+will+begin+Monday,+August+24th+at+2:00+AM.&dates=20260824T020000/20260824T060000", "NextNextCleaningCalendarLink": "https://calendar.google.com/calendar/render?action=TEMPLATE&text=Street+Cleaning+Reminder&details=Car+parked+at+Polk+St,+between+North+Point+St++and++Beach+St+on+the+West.+Cleaning+will+begin+Monday,+August+31st+at+2:00+AM.&dates=20260831T020000/20260831T060000" } } }, "geometry": { "type": "LineString", "coordinates": [ [ -122.423655075271, 37.805286984452998 ], [ -122.423844681031994, 37.806221894758998 ] ] } }
]
}
