{
"type": "FeatureCollection",
"name": "PresidioNationalPark",
"crs": { "type": "name", "properties": { "name": "urn:ogc:def:crs:OGC:1.3:CRS84" } },
"features": [
{ "type": "Feature", "properties": { "Corridor": "14th Ave", "Limits": "Wedemeyer St  -  Park Blvd", "StreetIdentifier": "14th Ave, between Wedemeyer St  and  Park Blvd", "Sides": { "East": { "NextCleaning": "2026-09-28T09:00:00-07:00", "NextNextCleaning": "2026-10-12T09:00:00-07:00", "NextCleaningEnd": "2026-09-28T11:00:00-07:00", "NextNextCleaningEnd": "2026-10-12T11:00:00-07:00", "NextCleaningCalendarLink": "https://calendar.google.com/calendar/render?action=TEMPLATE&text=Street+Cleaning+Reminder&details=Car+parked+at+14th+Ave,+between+Wedemeyer+St++and++Park+Blvd+on+the+East.+Cleaning+will+begin+Monday,+September+28th+at+9:00+AM.&dates=20260928T090000/20260928T110000", "NextNextCleaningCalendarLink": "https://calendar.google.com/calendar/render?action=TEMPLATE&text=Street+Cleaning+Reminder&details=Car+parked+at+14th+Ave,+between+Wedemeyer+St++and++Park+Blvd+on+the+East.+Cleaning+will+begin+Monday,+October+12th+at+9:00+AM.&dates=20261012T090000/20261012T110000" }, "West": { "NextCleaning": "2026-09-28T09:00:00-07:00", "NextNextCleaning": "2026-10-12T09:00:00-07:00", "NextCleaningEnd": "2026-09-28T11:00:00-07:00", "NextNextCleaningEnd": "2026-10-12T11:00:00-07:00", "NextCleaningCalendarLink": "https://calendar.google.com/calendar/render?action=TEMPLATE&text=Street+Cleaning+Reminder&details=Car+parked+at+14th+Ave,+between+Wedemeyer+St++and++Park+Blvd+on+the+West.+Cleaning+will+begin+Monday,+September+28th+at+9:00+AM.&dates=20260928T090000/20260928T110000", "NextNextCleaningCalendarLink": "https://calendar.google.com/calendar/render?action=TEMPLATE&text=Street+Cleaning+Reminder&details=Car+parked+at+14th+Ave,+between+Wedemeyer+St++and++Park+Blvd+on+the+West.+Cleaning+will+begin+Monday,+October+12th+at+9:00+AM.&dates=20261012T090000/20261012T110000" } } }, "geometry": { "type": "LineString", "coordinates": [ [ -122.473354209795005, 37.787491817951 ], [ -122.473320668455997, 37.787193059438998 ] ] } },
{ "type": "Feature", "properties": { "Corridor": "Arguello Blvd", "Limits": "West Pacific Ave  -  Jackson St", "StreetIdentifier": "Arguello Blvd, between West Pacific Ave  and  Jackson St", "Sides": { "East": { "NextCleaning": "2026-09-24T09:00:00-07:00", "NextNextCleaning": "2026-10-08T09:00:00-07:00", "NextCleaningEnd": "2026-09-24T11:00:00-07:00", "NextNextCleaningEnd": "2026-10-08T11:00:00-07:00", "NextCleaningCalendarLink": "https://calendar.google.com/calendar/render?action=TEMPLATE&text=Street+Cleaning+Reminder&details=Car+parked+at+Arguello+Blvd,+between+West+Pacific+Ave++and++Jackson+St+on+the+East.+Cleaning+will+begin+Thursday,+September+24th+at+9:00+AM.&dates=20260924T090000/20260924T110000", "NextNextCleaningCalendarLink": "https://calendar.google.com/calendar/render?action=TEMPLATE&text=Street+Cleaning+Reminder&details=Car+parked+at+Arguello+Blvd,+between+West+Pacific+Ave++and++Jackson+St+on+the+East.+Cleaning+will+begin+Thursday,+October+8th+at+9:00+AM.&dates=20261008T090000/20261008T110000" }, "West": { "NextCleaning": "2026-10-13T09:00:00-07:00", "NextNextCleaning": "2026-10-27T09:00:00-07:00", "NextCleaningEnd": "2026-10-13T11:00:00-07:00", "NextNextCleaningEnd": "2026-10-27T11:00:00-07:00", "NextCleaningCalendarLink": "https://calendar.google.com/calendar/render?action=TEMPLATE&text=Street+Cleaning+Reminder&details=Car+parked+at+Arguello+Blvd,+between+West+Pacific+Ave++and++Jackson+St+on+the+West.+Cleaning+will+begin+Tuesday,+October+13th+at+9:00+AM.&dates=20261013T090000/20261013T110000", "NextNextCleaningCalendarLink": "https://calendar.google.com/calendar/render?action=TEMPLATE&text=Street+Cleaning+Reminder&details=Car+parked+at+Arguello+Blvd,+between+West+Pacific+Ave++and++Jackson+St+on+the+West.+Cleaning+will+begin+Tuesday,+October+27th+at+9:00+AM.&dates=20261027T090000/20261027T110000" } } }, "geometry": { "type": "LineString", "coordinates": [ [ -122.459475650543993, 37.789710559056999 ], [ -122.459452537003003, 37.789300949922001 ] ] } },
{ "type": "Feature", "properties": { "Corridor": "15th Ave", "Limits": "North 15th Ave  -  Lake St", "StreetIdentifier": "15th Ave, between North 15th Ave  and  Lake St", "Sides": { "East": { "NextCleaning": "2026-10-13T09:00:00-07:00", "NextNextCleaning": "2026-10-27T09:00:00-07:00", "NextCleaningEnd": "2026-10-13T11:00:00-07:00", "NextNextCleaningEnd": "2026-10-27T11:00:00-07:00", "NextCleaningCalendarLink": "https://calendar.google.com/calendar/render?action=TEMPLATE&text=Street+Cleaning+Reminder&details=Car+parked+at+15th+Ave,+between+North+15th+Ave++and++Lake+St+on+the+East.+Cleaning+will+begin+Tuesday,+October+13th+at+9:00+AM.&dates=20261013T090000/20261013T110000", "NextNextCleaningCalendarLink": "https://calendar.google.com/calendar/render?action=TEMPLATE&text=Street+Cleaning+Reminder&details=Car+parked+at+15th+Ave,+between+North+15th+Ave++and++Lake+St+on+the+East.+Cleaning+will+begin+Tuesday,+October+27th+at+9:00+AM.&dates=20261027T090000/20261027T110000" }, "West": { "NextCleaning": "2026-10-13T09:00:00-07:00", "NextNextCleaning": "2026-10-27T09:00:00-07:00", "NextCleaningEnd": "2026-10-13T11:00:00-07:00", "NextNextCleaningEnd": "2026-10-27T11:00:00-07:00", "NextCleaningCalendarLink": "https://calendar.google.com/calendar/render?action=TEMPLATE&text=Street+Cleaning+Reminder&details=Car+parked+at+15th+Ave,+between+North+15th+Ave++and++Lake+St+on+the+West.+Cleaning+will+begin+Tuesday,+October+13th+at+9:00+AM.&dates=20261013T090000/20261013T110000", "NextNextCleaningCalendarLink": "https://calendar.google.com/calendar/render?action=TEMPLATE&text=Street+Cleaning+Reminder&details=Car+parked+at+15th+Ave,+between+North+15th+Ave++and++Lake+St+on+the+West.+Cleaning+will+begin+Tuesday,+October+27th+at+9:00+AM.&dates=20261027T090000/20261027T110000" } } }, "geometry": { "type": "LineString", "coordinates": [ [ -122.474426983713997, 37.786975269998003 ], [ -122.474382841901004, 37.786238018200997 ] ] } },
{ "type": "Feature", "properties": { "Corridor": "El Camino Del Mar", "Limits": "Lincoln Blvd  -  25th Ave", "StreetIdentifier": "El Camino Del Mar, between Lincoln Blvd  and  25th Ave", "Sides": { "North": { "NextCleaning": "2026-09-23T09:00:00-07:00", "NextNextCleaning": "2026-10-14T09:00:00-07:00", "NextCleaningEnd": "2026-09-23T11:00:00-07:00", "NextNextCleaningEnd": "2026-10-14T11:00:00-07:00", "NextCleaningCalendarLink": "https://calendar.google.com/calendar/render?action=TEMPLATE&text=Street+Cleaning+Reminder&details=Car+parked+at+El+Camino+Del+Mar,+between+Lincoln+Blvd++and++25th+Ave+on+the+North.+Cleaning+will+begin+Wednesday,+September+23rd+at+9:00+AM.&dates=20260923T090000/20260923T110000", "NextNextCleaningCalendarLink": "https://calendar.google.com/calendar/render?action=TEMPLATE&text=Street+Cleaning+Reminder&details=Car+parked+at+El+Camino+Del+Mar,+between+Lincoln+Blvd++and++25th+Ave+on+the+North.+Cleaning+will+begin+Wednesday,+October+14th+at+9:00+AM.&dates=20261014T090000/20261014T110000" }, "South": { "NextCleaning": "2026-09-28T13:00:00-07:00", "NextNextCleaning": "2026-10-12T13:00:00-07:00", "NextCleaningEnd": "2026-09-28T15:00:00-07:00", "NextNextCleaningEnd": "2026-10-12T15:00:00-07:00", "NextCleaningCalendarLink": "https://calendar.google.com/calendar/render?action=TEMPLATE&text=Street+Cleaning+Reminder&details=Car+parked+at+El+Camino+Del+Mar,+between+Lincoln+Blvd++and++25th+Ave+on+the+South.+Cleaning+will+begin+Monday,+September+28th+at+1:00+PM.&dates=20260928T130000/20260928T150000", "NextNextCleaningCalendarLink": "https://calendar.google.com/calendar/render?action=TEMPLATE&text=Street+Cleaning+Reminder&details=Car+parked+at+El+Camino+Del+Mar,+between+Lincoln+Blvd++and++25th+Ave+on+the+South.+Cleaning+will+begin+Monday,+October+12th+at+1:00+PM.&dates=20261012T130000/20261012T150000" } } }, "geometry": { "type": "LineString", "coordinates": [ [ -122.484146100317005, 37.787664873132002 ], [ -122.485283461668004, 37.787611837854001 ] ] } },
{ "type": "Feature", "properties": { "Corridor": "Maple St", "Limits": "Start: 01-99 Block  -  Jackson St", "StreetIdentifier": "Maple St, between Start: 01and99 Block  and  Jackson St", "Sides": { "East": { "NextCleaning": "2026-10-05T08:00:00-07:00", "NextNextCleaning": "2026-10-19T08:00:00-07:00", "NextCleaningEnd": "2026-10-05T10:00:00-07:00", "NextNextCleaningEnd": "2026-10-19T10:00:00-07:00", "NextCleaningCalendarLink": "https://calendar.google.com/calendar/render?action=TEMPLATE&text=Street+Cleaning+Reminder&details=Car+parked+at+Maple+St,+between+Start:+01and99+Block++and++Jackson+St+on+the+East.+Cleaning+will+begin+Monday,+October+5th+at+8:00+AM.&dates=20261005T080000/20261005T100000", "NextNextCleaningCalendarLink": "https://calendar.google.com/calendar/render?action=TEMPLATE&text=Street+Cleaning+Reminder&details=Car+parked+at+Maple+St,+between+Start:+01and99+Block++and++Jackson+St+on+the+East.+Cleaning+will+begin+Monday,+October+19th+at+8:00+AM.&dates=20261019T080000/20261019T100000" }, "West": { "NextCleaning": "2026-10-05T08:00:00-07:00", "NextNextCleaning": "2026-10-19T08:00:00-07:00", "NextCleaningEnd": "2026-10-05T10:00:00-07:00", "NextNextCleaningEnd": "2026-10-19T10:00:00-07:00", "NextCleaningCalendarLink": "https://calendar.google.com/calendar/render?action=TEMPLATE&text=Street+Cleaning+Reminder&details=Car+parked+at+Maple+St,+between+Start:+01and99+Block++and++Jackson+St+on+the+West.+Cleaning+will+begin+Monday,+October+5th+at+8:00+AM.&dates=20261005T080000/20261005T100000", "NextNextCleaningCalendarLink": "https://calendar.google.com/calendar/render?action=TEMPLATE&text=Street+Cleaning+Reminder&details=Car+parked+at+Maple+St,+between+Start:+01and99+Block++and++Jackson+St+on+the+West.+Cleaning+will+begin+Monday,+October+19th+at+8:00+AM.&dates=20261019T080000/20261019T100000" } } }, "geometry": { "type": "LineString", "coordinates": [ [ -122.455872461973001, 37.790260712929999 ], [ -122.455773232286006, 37.789769678582999 ] ] } },
{ "type": "Feature", "properties": { "Corridor": "07th Ave", "Limits": "Start: 01-99 Block  -  Lake St", "StreetIdentifier": "07th Ave, between Start: 01and99 Block  and  Lake St", "Sides": { "East": { "NextCleaning": "2026-10-13T09:00:00-07:00", "NextNextCleaning": "2026-10-27T09:00:00-07:00", "NextCleaningEnd": "2026-10-13T11:00:00-07:00", "NextNextCleaningEnd": "2026-10-27T11:00:00-07:00", "NextCleaningCalendarLink": "https://calendar.google.com/calendar/render?action=TEMPLATE&text=Street+Cleaning+Reminder&details=Car+parked+at+07th+Ave,+between+Start:+01and99+Block++and++Lake+St+on+the+East.+Cleaning+will+begin+Tuesday,+October+13th+at+9:00+AM.&dates=20261013T090000/20261013T110000", "NextNextCleaningCalendarLink": "https://calendar.google.com/calendar/render?action=TEMPLATE&text=Street+Cleaning+Reminder&details=Car+parked+at+07th+Ave,+between+Start:+01and99+Block++and++Lake+St+on+the+East.+Cleaning+will+begin+Tuesday,+October+27th+at+9:00+AM.&dates=20261027T090000/20261027T110000" }, "West": { "NextCleaning": "2026-09-24T09:00:00-07:00", "NextNextCleaning": "2026-10-08T09:00:00-07:00", "NextCleaningEnd": "2026-09-24T11:00:00-07:00", "NextNextCleaningEnd": "2026-10-08T11:00:00-07:00", "NextCleaningCalendarLink": "https://calendar.google.com/calendar/render?action=TEMPLATE&text=Street+Cleaning+Reminder&details=Car+parked+at+07th+Ave,+between+Start:+01and99+Block++and++Lake+St+on+the+West.+Cleaning+will+begin+Thursday,+September+24th+at+9:00+AM.&dates=20260924T090000/20260924T110000", "NextNextCleaningCalendarLink": "https://calendar.google.com/calendar/render?action=TEMPLATE&text=Street+Cleaning+Reminder&details=Car+parked+at+07th+Ave,+between+Start:+01and99+Block++and++Lake+St+on+the+West.+Cleaning+will+begin+Thursday,+October+8th+at+9:00+AM.&dates=20261008T090000/20261008T110000" } } }, "geometry": { "type": "LineString", "coordinates": [ [ -122.465878383990997, 37.788258439700002 ], [ -122.465760339835001, 37.786627327631997 ] ] } },
{ "type": "Feature", "properties": { "Corridor": "14th Ave", "Limits": "Park Blvd  -  Lake St", "StreetIdentifier": "14th Ave, between Park Blvd  and  Lake St", "Sides": { "East": { "NextCleaning": "2026-09-28T09:00:00-07:00", "NextNextCleaning": "2026-10-12T09:00:00-07:00", "NextCleaningEnd": "2026-09-28T11:00:00-07:00", "NextNextCleaningEnd": "2026-10-12T11:00:00-07:00", "NextCleaningCalendarLink": "https://calendar.google.com/calendar/render?action=TEMPLATE&text=Street+Cleaning+Reminder&details=Car+parked+at+14th+Ave,+between+Park+Blvd++and++Lake+St+on+the+East.+Cleaning+will+begin+Monday,+September+28th+at+9:00+AM.&dates=20260928T090000/20260928T110000", "NextNextCleaningCalendarLink": "https://calendar.google.com/calendar/render?action=TEMPLATE&text=Street+Cleaning+Reminder&details=Car+parked+at+14th+Ave,+between+Park+Blvd++and++Lake+St+on+the+East.+Cleaning+will+begin+Monday,+October+12th+at+9:00+AM.&dates=20261012T090000/20261012T110000" }, "West": { "NextCleaning": "2026-09-28T09:00:00-07:00", "NextNextCleaning": "2026-10-12T09:00:00-07:00", "NextCleaningEnd": "2026-09-28T11:00:00-07:00", "NextNextCleaningEnd": "2026-10-12T11:00:00-07:00", "NextCleaningCalendarLink": "https://calendar.google.com/calendar/render?action=TEMPLATE&text=Street+Cleaning+Reminder&details=Car+parked+at+14th+Ave,+between+Park+Blvd++and++Lake+St+on+the+West.+Cleaning+will+begin+Monday,+September+28th+at+9:00+AM.&dates=20260928T090000/20260928T110000", "NextNextCleaningCalendarLink": "https://calendar.google.com/calendar/render?action=TEMPLATE&text=Street+Cleaning+Reminder&details=Car+parked+at+14th+Ave,+between+Park+Blvd++and++Lake+St+on+the+West.+Cleaning+will+begin+Monday,+October+12th+at+9:00+AM.&dates=20261012T090000/20261012T110000" } } }, "geometry": { "type": "LineString", "coordinates": [ [ -122.473320668455997, 37.787193059438998 ], [ -122.473255083509997, 37.786288101217998 ] ] } },
{ "type": "Feature", "properties": { "Corridor": "05th Ave", "Limits": "Start: 01-99 Block  -  Lake St", "StreetIdentifier": "05th Ave, between Start: 01and99 Block  and  Lake St", "Sides": { "East": { "NextCleaning": "2026-09-24T09:00:00-07:00", "NextNextCleaning": "2026-10-08T09:00:00-07:00", "NextCleaningEnd": "2026-09-24T11:00:00-07:00", "NextNextCleaningEnd": "2026-10-08T11:00:00-07:00", "NextCleaningCalendarLink": "https://calendar.google.com/calendar/render?action=TEMPLATE&text=Street+Cleaning+Reminder&details=Car+parked+at+05th+Ave,+between+Start:+01and99+Block++and++Lake+St+on+the+East.+Cleaning+will+begin+Thursday,+September+24th+at+9:00+AM.&dates=20260924T090000/20260924T110000", "NextNextCleaningCalendarLink": "https://calendar.google.com/calendar/render?action=TEMPLATE&text=Street+Cleaning+Reminder&details=Car+parked+at+05th+Ave,+between+Start:+01and99+Block++and++Lake+St+on+the+East.+Cleaning+will+begin+Thursday,+October+8th+at+9:00+AM.&dates=20261008T090000/20261008T110000" }, "West": { "NextCleaning": "2026-10-13T09:00:00-07:00", "NextNextCleaning": "2026-10-27T09:00:00-07:00", "NextCleaningEnd": "2026-10-13T11:00:00-07:00", "NextNextCleaningEnd": "2026-10-27T11:00:00-07:00", "NextCleaningCalendarLink": "https://calendar.google.com/calendar/render?action=TEMPLATE&text=Street+Cleaning+Reminder&details=Car+parked+at+05th+Ave,+between+Start:+01and99+Block++and++Lake+St+on+the+West.+Cleaning+will+begin+Tuesday,+October+13th+at+9:00+AM.&dates=20261013T090000/20261013T110000", "NextNextCleaningCalendarLink": "https://calendar.google.com/calendar/render?action=TEMPLATE&text=Street+Cleaning+Reminder&details=Car+parked+at+05th+Ave,+between+Start:+01and99+Block++and++Lake+St+on+the+West.+Cleaning+will+begin+Tuesday,+October+27th+at+9:00+AM.&dates=20261027T090000/20261027T110000" } } }, "geometry": { "type": "LineString", "coordinates": [ [ -122.463759697141995, 37.788683865415003 ], [ -122.463617942628005, 37.786721579672999 ] ] } }
]
}
